{"type": "FeatureCollection", "features": [{"type": "Feature", "properties": {"code": "FL", "name": "Flanders", "name_nl": "Vlaanderen", "name_fr": "Flandre"}, "geometry": {"type": "Polygon", "coordinates": [[[2.55, 51.0], [2.55, 50.68], [2.8, 50.45], [3.1, 50.12], [3.55, 50.0], [3.9, 49.92], [4.1, 49.92], [4.4, 49.98], [4.7, 50.08], [5.0, 50.2], [5.3, 50.3], [5.6, 50.45], [5.9, 50.62], [6.15, 50.8], [6.4, 51.0], [6.5, 51.2], [6.3, 51.42], [6.0, 51.48], [5.6, 51.5], [5.2, 51.45], [4.8, 51.38], [4.4, 51.32], [4.0, 51.28], [3.6, 51.22], [3.2, 51.15], [2.8, 51.08], [2.55, 51.0]]]}}, {"type": "Feature", "properties": {"code": "BR", "name": "Brussels-Capital", "name_nl": "Brussels Hoofdstedelijk Gewest", "name_fr": "R\u00e9gion de Bruxelles-Capitale"}, "geometry": {"type": "Polygon", "coordinates": [[[4.3, 50.9], [4.25, 50.85], [4.28, 50.8], [4.35, 50.78], [4.42, 50.8], [4.45, 50.85], [4.42, 50.9], [4.35, 50.92], [4.3, 50.9]]]}}, {"type": "Feature", "properties": {"code": "WA", "name": "Wallonia", "name_nl": "Walloni\u00eb", "name_fr": "Wallonie"}, "geometry": {"type": "Polygon", "coordinates": [[[2.8, 50.45], [2.55, 50.68], [2.55, 50.5], [2.6, 50.25], [2.7, 49.95], [2.85, 49.6], [3.0, 49.5], [3.4, 49.5], [3.8, 49.5], [4.2, 49.5], [4.5, 49.5], [4.8, 49.5], [5.1, 49.5], [5.4, 49.5], [5.7, 49.5], [6.0, 49.5], [6.3, 49.5], [6.5, 49.5], [6.7, 49.5], [6.9, 49.5], [7.0, 50.0], [7.0, 50.3], [6.8, 50.5], [6.5, 50.6], [6.15, 50.8], [5.9, 50.62], [5.6, 50.45], [5.3, 50.3], [5.0, 50.2], [4.7, 50.08], [4.4, 49.98], [4.1, 49.92], [3.9, 49.92], [3.55, 50.0], [3.1, 50.12], [2.8, 50.45]]]}}]}