{"type":"FeatureCollection", "features": [
{"type":"Feature","geometry":{"type":"Polygon","coordinates":[[[12.960631103000111,50.40923412300005],[13.00962406400015,50.49268137600008],[13.160105835000138,50.49702219700005],[13.232349487000079,50.58202992800007],[13.284646037000101,50.56895579000009],[13.380970906000073,50.62548980700008],[13.447943563000052,50.59727447600001],[13.523287801000038,50.66218007500005],[13.515639689000068,50.691015524000065],[13.601939331000096,50.712151185000025],[13.834534953000087,50.723675029000034],[13.892515910000043,50.78041575200005],[14.034936157000061,50.80258494100009],[14.1907922770001,50.8479051720001],[14.232133423000022,50.87937611900004],[14.34654504400001,50.88020294200008],[14.381891724000127,50.920872294000034],[14.238334595000111,50.98247060200005],[14.287530558000071,51.03683420800003],[14.39780806400006,51.0131147260001],[14.493512818000056,51.016706238000054],[14.574334758000106,50.97549428300006],[14.5503568930001,50.91208730100003],[14.634589478000066,50.9094001270001],[14.608337850000055,50.85307281500009],[14.70042525200006,50.815969137000124],[14.775356079000119,50.81297190400001],[14.810392700000136,50.858447164000054],[14.95529341700012,51.06404185000012],[15.022059367000054,51.23677032500005],[14.963768352000017,51.32839263900006],[14.950647846000038,51.396539377000025],[14.910955038000083,51.46897837300004],[14.732154582000078,51.515823059000084],[14.706769960000116,51.54082806400008],[14.595367873328655,51.5624860699761],[14.509274936589065,51.55685333901039],[14.338587680776811,51.509931139310595],[14.268927849840395,51.53235871038618],[14.158753695626558,51.526881009051294],[14.06702802882046,51.47386098949306],[13.970341423717741,51.35919098587527],[13.766477898835944,51.34797719988785],[13.521738314571564,51.366942451233115],[13.410789014901127,51.42140940981636],[13.252194045119097,51.385235908110644],[13.18765018121087,51.385235908110644],[13.210491164335735,51.490862535177826],[13.171527133770212,51.566206773024135],[13.061663038818153,51.61509267838437],[12.862036980921914,51.668319404416934],[12.781576776047359,51.62700409636193],[12.715327589796402,51.63819204392763],[12.66210086376384,51.60145010054168],[12.443457878578215,51.60145010054168],[12.430590447990767,51.57245962251352],[12.30594689273488,51.55225413681893],[12.235356885811598,51.562150174091244],[12.157015415329113,51.449004624763575],[12.18166507268495,51.32477448245635],[12.132314080230628,51.291753242118375],[12.168022494842262,51.19744375292686],[12.153294712281138,51.170003566711216],[12.222644483955776,51.08897492105575],[12.26455407121341,51.08375560213932],[12.328942904591372,51.08783804039325],[12.48366214439244,51.05833079752824],[12.54572553870264,50.97125600885772],[12.647218051571826,50.8999425324219],[12.610889520235162,50.870125231194436],[12.527535434612616,50.87658478535951],[12.424389276244085,50.82433991125788],[12.258042840204894,50.79250722932517],[12.285483026420536,50.769304510994345],[12.24124800009514,50.72217560482028],[12.321811557757144,50.67401316987184],[12.252926873176648,50.626315822916865],[12.186936069344085,50.62636749886093],[12.145388218191727,50.562547106263935],[12.048546584357382,50.53156708415361],[11.989428744940597,50.546114000460705],[11.925815057019236,50.48839142502425],[11.90529951296213,50.41516592157001],[11.98121219158935,50.3853227810215],[11.986018101154457,50.35155223185001],[12.101343546867156,50.313980338321926],[12.16853845200012,50.302977193000046],[12.232513875000109,50.259103902000035],[12.28336348400012,50.16221059200008],[12.336486857000068,50.25858713800007],[12.510223022000076,50.38876007100005],[12.678791544000063,50.3937210080001],[12.75423913600008,50.435320536000106],[12.82575931800011,50.44141835600006],[12.960631103000111,50.40923412300005]]]},"properties":{"iso_3166_2":"DE-SN","name":"Sachsen","name_en":"Saxony"}},
{"type":"Feature","geometry":{"type":"Polygon","coordinates":[[[12.101343546867156,50.313980338321926],[11.986018101154457,50.35155223185001],[11.98121219158935,50.3853227810215],[11.90529951296213,50.41516592157001],[11.828818393554002,50.39105886477478],[11.796727329202895,50.41351227517134],[11.531678908255003,50.37842397728468],[11.42119469567865,50.443045356458015],[11.427085809062817,50.51309276012273],[11.346728956975767,50.5187254910885],[11.248647087892778,50.47263011278943],[11.2802730651498,50.358631904538754],[11.255313347632864,50.27486440686687],[11.192319777335854,50.27155711496886],[11.13537234915458,50.30933258712918],[11.112531366029714,50.365194811491335],[10.987939486717949,50.34989858724998],[10.943394402929357,50.387338161726746],[10.788881869602562,50.38625295700831],[10.714984571680645,50.32194163709687],[10.837871127750304,50.27166046775636],[10.840196566818065,50.242049872103905],[10.731572707114708,50.24230825542162],[10.726611768818088,50.210423895746146],[10.617057733127865,50.22440237127239],[10.591322870154329,50.32597239850736],[10.499752231180537,50.35351593751051],[10.318678012580222,50.492370510490616],[10.238011102130656,50.510121365008956],[10.126131625574033,50.562857163727074],[10.055024854713281,50.51650340390893],[10.000867953593172,50.448445543427056],[9.858912795189326,50.39899119728591],[9.766722038591183,50.40209178270959],[9.74858361224392,50.30556020813708],[9.680319045287717,50.27951528590171],[9.661198765210827,50.23435008448877],[9.511027051657095,50.23621043646244],[9.528700391809593,50.168617662175336],[9.506686231884089,50.108104560576976],[9.406744011726744,50.09234324834222],[9.329126010756795,50.139291287362994],[9.22877037944943,50.14381297518861],[9.152547641560375,50.11229035071909],[9.107899204085015,50.125416165523575],[9.01028242389475,50.09683909774611],[8.976589389988362,50.05278493947333],[9.026870558429493,50.043147285518785],[9.026715528798604,49.90739329706298],[9.07017540876808,49.8305762799713],[9.140920444422932,49.78734894489787],[9.133324008696036,49.69598501239835],[9.07265587656741,49.61087392848896],[9.11068973114618,49.57511383703394],[9.253420036805267,49.57756846821019],[9.286337925255054,49.62660940230205],[9.404418572658983,49.64007111299145],[9.427207878940465,49.708180650316706],[9.313623080940431,49.73210683905933],[9.351863641094155,49.78574697534259],[9.490976597392034,49.79525543898728],[9.601925897062472,49.77083832472886],[9.646315952119494,49.78362824184984],[9.630502963940614,49.69903392187797],[9.727499627405848,49.68730337195302],[9.79250857930748,49.72197825779034],[9.882322218195782,49.60937531172124],[9.839069044700636,49.55123932603402],[9.91291466577917,49.579041246556244],[9.936324089685002,49.481734523829175],[10.019678176206867,49.48033925984896],[10.085152215202584,49.54431468387554],[10.127526889554304,49.51144847316846],[10.114607782123414,49.440315863885985],[10.171090122311284,49.38432444921392],[10.121790805801027,49.36954498980941],[10.159772982637037,49.275338854304664],[10.146905552049589,49.205394802528076],[10.264056024366027,49.1268207871496],[10.274442987154146,49.05018463811052],[10.354231397560909,49.03338979800077],[10.458824496753095,48.939390367171654],[10.458979526384041,48.83350535678676],[10.432417840211144,48.765783393089066],[10.495101353045015,48.69945669247238],[10.371904737713464,48.66449758579495],[10.298059115735612,48.70348745388287],[10.270412224844279,48.68113739717313],[10.313096957558514,48.60817027433865],[10.31495731043151,48.53109487572789],[10.153416782158729,48.46582754230718],[10.067943963043433,48.472235418729554],[9.980559116010397,48.381336575122816],[10.054094678726415,48.30485545481537],[10.136208529999635,48.10729645446776],[10.1301623878839,48.03492361083596],[10.087012567176203,47.96027700497979],[10.129542271158869,47.816513170546386],[10.131402622233225,47.687916368245794],[10.075695428401275,47.64970164741305],[10.057815382673766,47.67822703744781],[9.95327396032502,47.65946849257682],[9.864648878942603,47.674816392762295],[9.7150456070691,47.604846503463364],[9.612209507063085,47.58774160409172],[9.554143851957178,47.532743111105674],[9.7039860430001,47.531415100000075],[9.75266524200012,47.58205800400005],[9.81312666900007,47.54175038699999],[9.948725626000083,47.524232077000036],[10.071818888000053,47.43912099300012],[10.073162475000117,47.36548207600002],[10.190881388000093,47.37922800800003],[10.208554729000099,47.35447499600009],[10.17495084980186,47.272375554388304],[10.305913126000064,47.30217844700009],[10.411643107000089,47.38103668300003],[10.451950724000113,47.438759257000115],[10.41960127800013,47.49304535000006],[10.41422692900008,47.57301462800008],[10.525124552000108,47.52846954400009],[10.607910197000109,47.562265930000066],[10.79032800300007,47.51606720000002],[10.858644247000115,47.53066579199999],[10.851616252000014,47.493097026000086],[10.959826701000111,47.43250640900003],[10.979463745000146,47.39054514600009],[11.083746785000102,47.38951161800013],[11.168599487000051,47.42426401800007],[11.25882653800005,47.40072540300007],[11.305645385000076,47.43540029000009],[11.383883504000039,47.444857076000076],[11.412615600000038,47.506093648000004],[11.551211792000089,47.51369008400006],[11.620458211000113,47.58965444000002],[11.820342651000118,47.575288391000115],[11.935891154000018,47.61073842400005],[12.165644572000133,47.60396881100009],[12.202128133000144,47.62983286600003],[12.17659997600012,47.70582305900008],[12.242229044000055,47.732023011000095],[12.238715047000113,47.67889963900005],[12.424130086000076,47.691560365],[12.496580444000074,47.62890269000006],[12.563374919000069,47.641761370000054],[12.653056681000095,47.675127259000035],[12.761990600000075,47.66685902900009],[12.81315026900009,47.61182362900003],[12.778940470000094,47.55482452400004],[12.942548055000145,47.47048858700005],[13.03732263100008,47.49304535000006],[13.038252807000049,47.58402170900008],[13.072049194000044,47.622417298000116],[13.01985599800014,47.712928569],[12.892008504000103,47.723548076],[12.99122725400008,47.84710642600005],[12.931075887000105,47.924879456],[12.84824627100005,47.98238892000002],[12.760233602000113,48.06487091100003],[12.745040731000074,48.12062978200008],[12.877642456000103,48.202046001],[12.933039591000068,48.209254863000055],[13.032775106000145,48.26356679300001],[13.274207397000055,48.307104187000036],[13.405568888000062,48.37658315100002],[13.456418498000062,48.506652731000074],[13.44008874500011,48.56096466100003],[13.520703979000132,48.58458079100005],[13.624366902000105,48.565357158000026],[13.716505981000125,48.521690572000054],[13.802392211000068,48.6117109180001],[13.816861612000082,48.69558176700009],[13.785855754000067,48.72477895100003],[13.815724731000074,48.766430156000055],[13.724670858000138,48.867302552000055],[13.654442586000073,48.88223704000002],[13.608657267000126,48.94616078700007],[13.522395447000093,48.969341930000084],[13.482256713000083,48.93763417600006],[13.384174845000132,48.993031311000024],[13.372392618000049,49.03850657200006],[13.299528849000126,49.093645325000054],[13.178502645000066,49.11834666000006],[12.999805542000104,49.294925029000055],[12.92291101100011,49.33270050100002],[12.797750692000108,49.3278429170001],[12.729331095000106,49.39114654600009],[12.643548218000092,49.42949045800002],[12.622980998000116,49.50984731000004],[12.501954793000039,49.61971140600009],[12.49637373900012,49.66999257500005],[12.419582560000038,49.70022328700007],[12.38361576300008,49.74285634400006],[12.452655477000121,49.779701640000056],[12.52407230600005,49.9049653120001],[12.462680705000139,49.931268616000054],[12.468158406000043,49.97023264600004],[12.246879923000108,50.04495676700013],[12.179183797000121,50.117975566000084],[12.182697795000081,50.170737203],[12.079551635000144,50.24272247300006],[12.101343546867156,50.313980338321926]]]},"properties":{"iso_3166_2":"DE-BY","name":"Bayern","name_en":"Bavaria"}},
{"type":"Feature","geometry":{"type":"Polygon","coordinates":[[[6.11748661300004,50.12045603500006],[6.096402629000096,50.04862579400013],[6.161928345000092,49.942482402000095],[6.295567891944643,49.84861569186069],[6.414522746000046,49.80548818000007],[6.500098918000077,49.794481100000084],[6.49172733600011,49.70079172800003],[6.418243449000045,49.66988922200004],[6.350754028000097,49.56658803400005],[6.348808550000058,49.52528975500012],[6.605106234964751,49.53020701803945],[6.712334831587214,49.55030915004721],[6.936403843062919,49.62715200556056],[7.132825961848653,49.602011419991015],[7.21912560416331,49.56353831584056],[7.267546420630822,49.578498644197055],[7.308474155058207,49.485403550933086],[7.24610070238549,49.44612946200505],[7.3011877776937695,49.384841214050766],[7.385161980940666,49.36967418101864],[7.3873323912768,49.336833807833955],[7.294676547584572,49.2051622585314],[7.3716338085533835,49.16617361442076],[7.476111694000082,49.15152292900008],[7.52086348500012,49.08367177400005],[7.644932350047895,49.03629544817636],[7.773664591000113,49.04811838799999],[7.931897827000114,49.03483754600008],[8.090441121000083,48.97918202800007],[8.1998915450001,48.95825033100003],[8.283608432683025,49.00995453657259],[8.357143996298362,49.10956085904638],[8.387323031832466,49.231982327122694],[8.479875522737188,49.29699127902427],[8.493879835785776,49.442615465431345],[8.40835533982704,49.55521841150045],[8.416830274697418,49.579454657706265],[8.360554640084558,49.664462388828156],[8.379209832167987,49.71040273749634],[8.473829379722076,49.75745412930462],[8.42380659280002,49.76729848883417],[8.340090772870838,49.89101186810319],[8.335439893835996,49.95963817026529],[8.228107944426085,50.03818634722211],[8.173796013675087,50.04578278294906],[7.9185661147344035,49.97387502731061],[7.771391635615487,50.05348257146346],[7.854539014763702,50.115778509770394],[7.9217183770014685,50.10880219256711],[7.896758661283172,50.15502676027671],[7.922183464994873,50.20008860890215],[8.045741814633004,50.26334056341625],[8.122688022933914,50.27791331634643],[8.022280714783165,50.38912099933464],[7.980061069163014,50.3957872581754],[8.019180129359484,50.45490509669281],[8.00445234499972,50.52074087179375],[8.041556023591625,50.54446035406204],[8.10718509311755,50.526528632390466],[8.16382246293631,50.58580150053882],[8.121602817316159,50.645797838199655],[8.134470248802927,50.68403839835338],[8.056283807052068,50.69091136276916],[7.9425439803204085,50.83203969977228],[7.844617139969046,50.88195913390689],[7.859654981791948,50.92247345628493],[7.757542352197788,50.91131134714095],[7.767670932567455,50.83648387323211],[7.675635207398898,50.809973863003336],[7.698889600774464,50.781629340121924],[7.599464146353284,50.73344106675182],[7.386867303283395,50.70364960394602],[7.371519403097977,50.64259389908915],[7.282584263353044,50.61882273997742],[7.196904737763418,50.63631521297668],[7.154581740255082,50.60112356230252],[7.051848993036572,50.59034902588684],[6.885192497735545,50.52177440056812],[6.887827996065141,50.4766608750993],[6.760135532229015,50.47066640892763],[6.795017123641344,50.35560883258154],[6.619523960062679,50.35093211512498],[6.5855725437378965,50.37739044940969],[6.3733996840001055,50.323080035000075],[6.299491007000086,50.308868307000054],[6.253395630000057,50.25677846300009],[6.146838827000096,50.214042054000075],[6.11748661300004,50.12045603500006]]]},"properties":{"iso_3166_2":"DE-RP","name":"Rheinland-Pfalz","name_en":"Rhineland-Palatinate"}},
{"type":"Feature","geometry":{"type":"Polygon","coordinates":[[[6.345307071000093,49.4553486520001],[6.402740519000133,49.46545725500009],[6.4945178630000555,49.43553660100004],[6.574306274000037,49.36179433200003],[6.550121704000077,49.33802317300005],[6.639676961000106,49.27115386999999],[6.700965210000049,49.17286529600007],[6.809072306000132,49.145838522000034],[6.833463583000054,49.20945221000004],[7.009473510000078,49.18170196500007],[7.020532267000078,49.11896677700004],[7.085334513000106,49.14154937800008],[7.154994344000016,49.114419251000086],[7.268062378000138,49.10563425700012],[7.3716338085533835,49.16617361442076],[7.294676547584572,49.2051622585314],[7.3873323912768,49.336833807833955],[7.385161980940666,49.36967418101864],[7.3011877776937695,49.384841214050766],[7.24610070238549,49.44612946200505],[7.308474155058207,49.485403550933086],[7.267546420630822,49.578498644197055],[7.21912560416331,49.56353831584056],[7.132825961848653,49.602011419991015],[6.936403843062919,49.62715200556056],[6.712334831587214,49.55030915004721],[6.605106234964751,49.53020701803945],[6.348808550000058,49.52528975500012],[6.345307071000093,49.4553486520001]]]},"properties":{"iso_3166_2":"DE-SL","name":"Saarland","name_en":"Saarland"}},
{"type":"Feature","geometry":{"type":"MultiPolygon","coordinates":[[[[9.437503027053964,54.81041112738269],[9.226392456000042,54.805906474000025],[9.194766480000055,54.85039988200002],[8.82424645900008,54.90590037000008],[8.660775934000071,54.89631115600007],[8.648448113000086,54.81785716400003],[8.688731316000087,54.73529694200005],[8.805430535000085,54.687567450000074],[8.85328209700009,54.61928945500006],[9.011566602000073,54.50633372600004],[9.004730665000068,54.46588776200008],[8.86068769600007,54.41380442900004],[8.750824415000068,54.41380442900004],[8.629161004000082,54.38768138200004],[8.695567254000082,54.358587958000044],[8.599864129000082,54.33808014500005],[8.651866082000083,54.27484772300005],[8.963145379000082,54.317613023000035],[8.922048373000052,54.27423737200007],[8.83961022200009,54.255560614000046],[8.812836134000065,54.18048737200007],[8.86068769600007,54.12518952000005],[8.977305535000085,54.145697333000044],[9.018321160000085,54.09788646000004],[8.997243686000047,54.03021881700005],[8.83334394600007,54.036444403000075],[8.916026238000086,53.93740469000005],[9.007823113000086,53.89248281500005],[9.22046959700009,53.89077383000006],[9.395192905000044,53.83100006700005],[9.435801629000082,53.74868398600006],[9.532237175000091,53.71116771000004],[9.550791863000086,53.63458893400008],[9.655772332000083,53.58462148600006],[9.74081038148496,53.57257470347835],[9.76842736183329,53.62918162713038],[9.828630405069134,53.59724559241016],[9.927332390877098,53.64566640887762],[10.065153435982268,53.68080638270834],[10.092903679661049,53.72018382442394],[10.194861281422959,53.72253510191342],[10.164733920933713,53.68452708575637],[10.222766553833367,53.63365163811261],[10.17315717896065,53.573784492560264],[10.186644728071713,53.52531199834999],[10.327979770649904,53.43265615555708],[10.528380974902063,53.372401435477855],[10.601244744948985,53.371832993797625],[10.635402865949516,53.44523936620374],[10.820352817228695,53.514795844352705],[10.828259312217483,53.56742829028332],[10.954401483341769,53.56613637998993],[10.938123407169485,53.68470795290966],[10.76092492034877,53.7466938337534],[10.763250360315851,53.8650587019975],[10.904171990844702,53.931282049826734],[10.90601647200009,53.96120840100008],[10.865570509000065,53.99778880400004],[10.780446811000047,54.00995514500005],[10.752614780000044,54.04389069200005],[10.801442905000044,54.092230536000045],[10.910329623000052,54.10919830900008],[11.066579623000052,54.18390534100007],[11.094493035000085,54.22508372600004],[11.077403191000087,54.342230536000045],[11.135508660000085,54.38589101800005],[11.033946160000085,54.367621161000045],[10.93531334700009,54.37954336100006],[10.77711022200009,54.31513092700004],[10.690196160000085,54.31622955900008],[10.601084832000083,54.36542389500005],[10.306895379000082,54.441107489000046],[10.217133009000065,54.40542226800005],[10.180349155000044,54.341131903000075],[10.141774936000047,54.372259833000044],[10.191254102000073,54.39671458500004],[10.203868035000085,54.461004950000074],[10.12468509200005,54.495754299000055],[9.883311394000089,54.462103583000044],[10.020030144000089,54.54584381700005],[10.033539259000065,54.67291901200008],[9.92945397200009,54.673895575000074],[10.018239780000044,54.701239325000074],[9.915049675000091,54.79120514500005],[9.823741082000083,54.756740627000056],[9.69304446700005,54.818019924000055],[9.583181186000047,54.83026764500005],[9.579925977000073,54.86627838700008],[9.437503027053964,54.81041112738269]]],[[[8.963145379000082,54.52366771000004],[8.844493035000085,54.51972077000005],[8.812836134000065,54.482123114000046],[8.911306186000047,54.475490627000056],[8.963145379000082,54.52366771000004]]],[[[11.25562584700009,54.47870514500005],[11.121267123000052,54.53595612200007],[11.033702019000089,54.50885651200008],[11.005707227000073,54.468451239000046],[11.098643425000091,54.45164622600004],[11.11264082100007,54.415228583000044],[11.31421959700009,54.41380442900004],[11.25562584700009,54.47870514500005]]],[[[8.332367384000065,54.693793036000045],[8.291514519000089,54.66705963700008],[8.353688998000052,54.61896393400008],[8.382334832000083,54.63914622600004],[8.332367384000065,54.693793036000045]]],[[[8.497569207000083,54.75641510600008],[8.394541863000086,54.714829820000034],[8.56576582100007,54.687567450000074],[8.593760613000086,54.728501695000034],[8.497569207000083,54.75641510600008]]],[[[8.360362175000091,54.94818756700005],[8.373708530000044,55.03497955900008],[8.288584832000083,54.89130280200004],[8.446055535000085,54.86627838700008],[8.354502800000091,54.91274648600006],[8.360362175000091,54.94818756700005]]],[[[8.63453209700009,54.542629299000055],[8.595876498000052,54.513657945000034],[8.669769727000073,54.50189850500004],[8.69890384200005,54.558579820000034],[8.63453209700009,54.542629299000055]]]]},"properties":{"iso_3166_2":"DE-SH","name":"Schleswig-Holstein","name_en":"Schleswig-Holstein"}},
{"type":"Feature","geometry":{"type":"MultiPolygon","coordinates":[[[[7.072150759000124,52.841316552000066],[7.036655314000058,52.647381897000045],[6.967718953000144,52.63665903800002],[6.77052168700007,52.641025696],[6.719083149000085,52.626758982000055],[6.7437532960000794,52.559712830000095],[6.671716349000121,52.541677755000094],[6.695074097000145,52.475609437000045],[6.741169474000088,52.4536727910001],[6.9002295330001004,52.43191701299999],[6.9733000080001375,52.45137319000007],[7.048230835000112,52.36507354700002],[7.0124707440000975,52.284949239000056],[7.026600151575735,52.23862268668762],[7.121508823073725,52.26265005095905],[7.300567660968738,52.271796780297166],[7.416477898935852,52.313964749073875],[7.602099643783504,52.41540558509962],[7.609075961886106,52.47555695329072],[7.680596143896935,52.46201772733622],[7.702920363084274,52.41333852845031],[7.829269239783571,52.36272146322494],[7.9057503600910195,52.3772683777334],[7.973549839053817,52.3121043971002],[7.900789421794343,52.20787303311397],[8.017474806117377,52.17412832326346],[7.990189650432001,52.12322703719798],[7.8916426942549265,52.08976654728832],[7.969829136005785,52.03852936533792],[8.022900832407458,52.066150417807535],[8.181030715095403,52.083074449126514],[8.266865269416655,52.133613999986096],[8.393627557265916,52.111263943276356],[8.48623172411476,52.170045885009586],[8.460186801879388,52.30419790301079],[8.427734002322325,52.366778063057154],[8.333889601124156,52.39835236347079],[8.30143680156715,52.45111399971131],[8.44809451674854,52.454627997184275],[8.496670362846942,52.506511135180745],[8.63211429204091,52.52392609291485],[8.70363447405174,52.48015615548218],[8.70673506037474,52.4072923854352],[8.826727735696409,52.38879222298266],[8.961241488903568,52.40907522214377],[8.999120313851392,52.46276703616974],[9.081182489180492,52.49757111321628],[9.131618687252626,52.47674550989734],[9.12836307129868,52.40845510541874],[9.073896111816111,52.3487429876987],[9.018033888353273,52.34106903670664],[8.983255648829129,52.26497549092613],[9.070485467130595,52.23691518798552],[8.988061558394179,52.188494371518004],[8.996484816421116,52.13410492640122],[9.135494419032227,52.13190867854263],[9.189806348883906,52.07496124946209],[9.171047804012915,51.985974432873775],[9.28602786599322,51.97277110550209],[9.255280388778885,51.922360744952414],[9.33460371299094,51.905772610417614],[9.321994663023247,51.856266588332346],[9.455164829093576,51.868203843832305],[9.436664665741716,51.770457872432814],[9.389845818829485,51.729400946796204],[9.373050977820355,51.64726125800064],[9.440075311326552,51.649044093809835],[9.623371616207123,51.629458727538236],[9.686055129040938,51.57194285677741],[9.643990513051733,51.57191701925501],[9.596809930034226,51.51158478480994],[9.638719517291861,51.46802155205296],[9.63251834464586,51.40094554350202],[9.582082146573782,51.39882680910995],[9.569369744717903,51.34234446892208],[9.762071161354982,51.309323229483425],[9.71365034308883,51.36379018806667],[9.904233026233157,51.41696523725585],[9.949243198015154,51.38179942500341],[10.045723096643599,51.432106431866316],[10.149696079110754,51.4317963735038],[10.19470625179207,51.47939036677201],[10.239561394842497,51.47210399030689],[10.42172081906051,51.591864122531206],[10.51422163312185,51.55628489822942],[10.610391473387779,51.572562975301025],[10.697621290789925,51.63736522072833],[10.664083285615106,51.707231757239754],[10.585276727139217,51.77792511695054],[10.58016076011097,51.844897772714035],[10.63989871625273,51.88355174401772],[10.644549595287572,51.95868927718834],[10.570083855685368,52.006800035293395],[10.652456089376983,52.042611802692534],[10.968405796390357,52.064574285774654],[10.947735222702363,52.096975410286916],[11.0382206560584,52.131701972068356],[11.019307081556576,52.18686656444038],[11.082920770377257,52.225132962116504],[11.01475955620856,52.28740306290098],[10.999256626392196,52.342490139108634],[11.072998894683224,52.372178250026195],[10.939053582256975,52.46212108012372],[11.001737095090846,52.49813955309787],[10.953678012929913,52.54547516484695],[10.97770755356072,52.61317129192156],[10.919829950291955,52.61947581645575],[10.75689415893828,52.78649404606335],[10.762010125067206,52.838377184059766],[10.960654331032515,52.865145575807674],[11.014656203421055,52.9118610699324],[11.213558790905438,52.897753404096306],[11.248181999899373,52.877857978562815],[11.412358025602373,52.90643504544096],[11.502016635759105,52.94415884075789],[11.506822544424892,53.00113210736083],[11.58133995907184,53.04286082656586],[11.416853875006325,53.08089468024525],[11.327608676898933,53.07241974537493],[11.274089929306797,53.11754382708591],[11.143433871975617,53.172672023894734],[11.089431999587077,53.14419830980415],[10.930216912180754,53.22845673299179],[10.739427524360735,53.30845184987294],[10.731572707114708,53.351989244208255],[10.601244744948985,53.371832993797625],[10.528380974902063,53.372401435477855],[10.327979770649904,53.43265615555708],[10.186541375284207,53.40438914704146],[10.083136833597962,53.45089793649055],[9.985365023776808,53.41506032977037],[9.857207471947277,53.432862861132094],[9.76842736183329,53.50815542303434],[9.763971799359012,53.54767968357049],[9.567067905000044,53.599595445000034],[9.484711134000065,53.69009023600006],[9.402679884000065,53.74241771000004],[9.274668816000087,53.86513906500005],[9.114512566000087,53.86513906500005],[8.86068769600007,53.83100006700005],[8.744639519000089,53.85415273600006],[8.684580925000091,53.88849518400008],[8.573252800000091,53.85765208500004],[8.492198113000086,53.71515534100007],[8.513037633902382,53.61709671821125],[8.625293002669935,53.604997056868626],[8.639090610143512,53.51665619632638],[8.557203417412692,53.51994079673261],[8.55209394600007,53.53620026200008],[8.387705925000091,53.57713450700004],[8.348480665000068,53.61286041900007],[8.257334832000083,53.60443756700005],[8.231211785000085,53.52521393400008],[8.320485873000052,53.50922272300005],[8.292816602000073,53.44049713700008],[8.205332879000082,53.41071198100008],[8.099782748000052,53.44741445500006],[8.058767123000052,53.502020575000074],[8.167979363000086,53.55320872600004],[8.052907748000052,53.63629791900007],[8.031423373000052,53.70807526200008],[7.951426629000082,53.721909898000035],[7.503916863000086,53.67865631700005],[7.458832227000073,53.69513580900008],[7.226084832000083,53.66648997600004],[7.086761915000068,53.58685944200005],[7.141774936000047,53.537176825000074],[7.059743686000047,53.52171458500004],[7.023285352000073,53.450506903000075],[7.023610873000052,53.37641022300005],[7.075205925000091,53.337591864000046],[7.302907748000052,53.33274974200003],[7.194590691000087,53.245021877000056],[7.172667684000118,53.12575063100009],[7.194371786000119,53.03384409600004],[7.183623088000104,52.966122131000034],[7.072150759000124,52.841316552000066]],[[8.56446984180974,53.21179108319188],[8.745544061309374,53.191611436818334],[8.91235558444265,53.1393407251943],[8.975194126008091,53.13468984615946],[8.972713657309441,53.05257599488624],[8.914525994778842,53.02461904653177],[8.865950147781064,53.04751170470138],[8.702394239702414,53.051129054961905],[8.702704298964193,53.079861152370256],[8.56446984180974,53.21179108319188]]],[[[6.798106316000087,53.60443756700005],[6.6595158210000704,53.59910716400003],[6.6770939460000704,53.57562897300005],[6.798106316000087,53.60443756700005]]],[[[7.133148634000065,53.70807526200008],[7.295746290000068,53.711004950000074],[7.2329207690000885,53.72943756700005],[7.133148634000065,53.70807526200008]]]]},"properties":{"iso_3166_2":"DE-NI","name":"Niedersachsen","name_en":"Lower Saxony"}},
{"type":"Feature","geometry":{"type":"Polygon","coordinates":[[[6.771575683870708,52.108792501972346],[6.675023641000109,52.034809468999995],[6.778169800000029,52.00127146500007],[6.81072595200007,51.96057627400002],[6.7437532960000794,51.90833140100004],[6.628153117000068,51.897505189000086],[6.3824833580001155,51.827586975000074],[6.1269950760000995,51.89673004100008],[6.156140584000127,51.842056376000116],[6.084000284000126,51.853657735000056],[5.928040812000063,51.8067355350001],[5.946056399882934,51.746288216527944],[6.02198856600009,51.70950632800002],[6.008552694000116,51.681187643],[6.099193156000069,51.64447153800005],[6.0864807540000925,51.59553395600004],[6.19334761500005,51.50933766700011],[6.207817016000149,51.38766550800007],[6.065190063000102,51.23162852000006],[6.084310344000102,51.16269215900003],[6.147252238000107,51.15225352],[5.982921183000144,51.07468719500012],[5.919565877000139,51.02970286],[5.852489868000106,51.04275116000004],[5.874607381000118,50.96536570300002],[6.003695109000091,50.973737283999995],[5.999871053000078,50.92939890600003],[6.063743124000041,50.90753977500002],[6.045553019000067,50.8441844690001],[5.972999308000055,50.78181101500003],[5.9949101160001135,50.749926656000085],[6.011549926000043,50.708533835000125],[6.0810030520001135,50.71349477200009],[6.180015096000119,50.61551625600005],[6.249054809000086,50.61443105100007],[6.160688110000052,50.54358266300001],[6.1992387290000295,50.49040761300007],[6.336904744000037,50.481002502000095],[6.337731567000077,50.36808949800003],[6.3733996840001055,50.323080035000075],[6.5855725437378965,50.37739044940969],[6.619523960062679,50.35093211512498],[6.795017123641344,50.35560883258154],[6.760135532229015,50.47066640892763],[6.887827996065141,50.4766608750993],[6.885192497735545,50.52177440056812],[7.051848993036572,50.59034902588684],[7.154581740255082,50.60112356230252],[7.196904737763418,50.63631521297668],[7.282584263353044,50.61882273997742],[7.371519403097977,50.64259389908915],[7.386867303283395,50.70364960394602],[7.599464146353284,50.73344106675182],[7.698889600774464,50.781629340121924],[7.675635207398898,50.809973863003336],[7.767670932567455,50.83648387323211],[7.757542352197788,50.91131134714095],[7.859654981791948,50.92247345628493],[7.844617139969046,50.88195913390689],[7.9425439803204085,50.83203969977228],[8.056283807052068,50.69091136276916],[8.134470248802927,50.68403839835338],[8.175139600811917,50.74207103125309],[8.139276156569338,50.784962470441656],[8.299576449593474,50.880873928289134],[8.364120314400964,50.861598619480674],[8.44406375533805,50.91601390211986],[8.544884473739444,51.02065867815543],[8.524730665787558,51.09331574172808],[8.658365919851292,51.08835480433072],[8.750194940344215,51.17279409377238],[8.716863640744407,51.271134345273765],[8.603588901106889,51.24255727839568],[8.578112419652427,51.27594025304023],[8.685496046805099,51.363428452860774],[8.935144890724132,51.39128205022644],[8.90615441179665,51.48091482196145],[9.015398390023677,51.509155992055355],[9.108674351340255,51.4429068058044],[9.214766066400841,51.45866811803921],[9.296259800049711,51.51757925098161],[9.354292432949421,51.589512844142405],[9.3330534202791,51.606669420357434],[9.440075311326552,51.649044093809835],[9.373050977820355,51.64726125800064],[9.389845818829485,51.729400946796204],[9.436664665741716,51.770457872432814],[9.455164829093576,51.868203843832305],[9.321994663023247,51.856266588332346],[9.33460371299094,51.905772610417614],[9.255280388778885,51.922360744952414],[9.28602786599322,51.97277110550209],[9.171047804012915,51.985974432873775],[9.189806348883906,52.07496124946209],[9.135494419032227,52.13190867854263],[8.996484816421116,52.13410492640122],[8.988061558394179,52.188494371518004],[9.070485467130595,52.23691518798552],[8.983255648829129,52.26497549092613],[9.018033888353273,52.34106903670664],[9.073896111816111,52.3487429876987],[9.12836307129868,52.40845510541874],[9.131618687252626,52.47674550989734],[9.081182489180492,52.49757111321628],[8.999120313851392,52.46276703616974],[8.961241488903568,52.40907522214377],[8.826727735696409,52.38879222298266],[8.70673506037474,52.4072923854352],[8.70363447405174,52.48015615548218],[8.63211429204091,52.52392609291485],[8.496670362846942,52.506511135180745],[8.44809451674854,52.454627997184275],[8.30143680156715,52.45111399971131],[8.333889601124156,52.39835236347079],[8.427734002322325,52.366778063057154],[8.460186801879388,52.30419790301079],[8.48623172411476,52.170045885009586],[8.393627557265916,52.111263943276356],[8.266865269416655,52.133613999986096],[8.181030715095403,52.083074449126514],[8.022900832407458,52.066150417807535],[7.969829136005785,52.03852936533792],[7.8916426942549265,52.08976654728832],[7.990189650432001,52.12322703719798],[8.017474806117377,52.17412832326346],[7.900789421794343,52.20787303311397],[7.973549839053817,52.3121043971002],[7.9057503600910195,52.3772683777334],[7.829269239783571,52.36272146322494],[7.702920363084274,52.41333852845031],[7.680596143896935,52.46201772733622],[7.609075961886106,52.47555695329072],[7.602099643783504,52.41540558509962],[7.416477898935852,52.313964749073875],[7.300567660968738,52.271796780297166],[7.121508823073725,52.26265005095905],[7.026600151575735,52.23862268668762],[6.884829956000118,52.160331523000096],[6.830673055000091,52.11289255800001],[6.771575683870708,52.108792501972346]]]},"properties":{"iso_3166_2":"DE-NW","name":"Nordrhein-Westfalen","name_en":"North Rhine-Westphalia"}},
{"type":"Feature","geometry":{"type":"Polygon","coordinates":[[[9.547481674000068,47.53454710200005],[9.554143851957178,47.532743111105674],[9.612209507063085,47.58774160409172],[9.7150456070691,47.604846503463364],[9.864648878942603,47.674816392762295],[9.95327396032502,47.65946849257682],[10.057815382673766,47.67822703744781],[10.075695428401275,47.64970164741305],[10.131402622233225,47.687916368245794],[10.129542271158869,47.816513170546386],[10.087012567176203,47.96027700497979],[10.1301623878839,48.03492361083596],[10.136208529999635,48.10729645446776],[10.054094678726415,48.30485545481537],[9.980559116010397,48.381336575122816],[10.067943963043433,48.472235418729554],[10.153416782158729,48.46582754230718],[10.31495731043151,48.53109487572789],[10.313096957558514,48.60817027433865],[10.270412224844279,48.68113739717313],[10.298059115735612,48.70348745388287],[10.371904737713464,48.66449758579495],[10.495101353045015,48.69945669247238],[10.432417840211144,48.765783393089066],[10.458979526384041,48.83350535678676],[10.458824496753095,48.939390367171654],[10.354231397560909,49.03338979800077],[10.274442987154146,49.05018463811052],[10.264056024366027,49.1268207871496],[10.146905552049589,49.205394802528076],[10.159772982637037,49.275338854304664],[10.121790805801027,49.36954498980941],[10.171090122311284,49.38432444921392],[10.114607782123414,49.440315863885985],[10.127526889554304,49.51144847316846],[10.085152215202584,49.54431468387554],[10.019678176206867,49.48033925984896],[9.936324089685002,49.481734523829175],[9.91291466577917,49.579041246556244],[9.839069044700636,49.55123932603402],[9.882322218195782,49.60937531172124],[9.79250857930748,49.72197825779034],[9.727499627405848,49.68730337195302],[9.630502963940614,49.69903392187797],[9.646315952119494,49.78362824184984],[9.601925897062472,49.77083832472886],[9.490976597392034,49.79525543898728],[9.351863641094155,49.78574697534259],[9.313623080940431,49.73210683905933],[9.427207878940465,49.708180650316706],[9.404418572658983,49.64007111299145],[9.286337925255054,49.62660940230205],[9.253420036805267,49.57756846821019],[9.11068973114618,49.57511383703394],[9.125262484975678,49.5160993522033],[8.957830845117371,49.503697007810615],[8.945583530355634,49.45509532329049],[8.84626142692332,49.3962875431356],[8.812568393916251,49.40424571406845],[8.848896926152179,49.48338817022784],[8.890496453248716,49.5061258005652],[8.718103875093732,49.54178253833345],[8.671543409700575,49.62255280246984],[8.601366814826633,49.61097728127646],[8.617386508580466,49.547079373414306],[8.566175164152469,49.5273131372914],[8.498220655558782,49.57338267716881],[8.416830274697418,49.579454657706265],[8.40835533982704,49.55521841150045],[8.493879835785776,49.442615465431345],[8.479875522737188,49.29699127902427],[8.387323031832466,49.231982327122694],[8.357143996298362,49.10956085904638],[8.283608432683025,49.00995453657259],[8.1998915450001,48.95825033100003],[8.102740112000049,48.82131052600006],[7.970138387000105,48.757283427000075],[7.948434285000104,48.71185984400002],[7.810251506000071,48.6150182090001],[7.813455444000027,48.51946848600004],[7.776455119000076,48.498177796000064],[7.738317912000099,48.406607158000085],[7.751960490000016,48.355344137000046],[7.702454467000081,48.31118662500005],[7.676616252000144,48.23840037100008],[7.581976474333016,48.12135305932073],[7.575743856000145,48.05370880200009],[7.618945353000072,48.00265248700002],[7.525927775000099,47.783156840000075],[7.521793660000071,47.67042470400007],[7.5860284880001245,47.584618544000065],[7.65966638200004,47.596579082000076],[7.64690103500007,47.55144523600005],[7.7273204468810945,47.550422624204714],[7.819656616000117,47.595338847000065],[7.91215743000015,47.5605606080001],[8.08723718200011,47.56738189700006],[8.17901452600006,47.6158027150001],[8.288568562000108,47.6158027150001],[8.306345255000053,47.59218658499999],[8.42110032591927,47.58111187031653],[8.522352742000038,47.62190053400006],[8.551719148619782,47.59686332957898],[8.576305365999815,47.59502305856728],[8.593588682771497,47.65816856033075],[8.458273966000121,47.639883932000046],[8.39130131000013,47.6654637650001],[8.463648315000086,47.76390737000007],[8.601624390000069,47.79460317000009],[8.719756714000084,47.747319234000045],[8.71706954000004,47.6945575970001],[8.797581420000114,47.72003407900003],[8.851935119000075,47.67128172300009],[8.906205281000041,47.651795349000096],[9.016586141000118,47.67889963900005],[9.183397664000069,47.67042470400007],[9.273211304000142,47.65009002700005],[9.547481674000068,47.53454710200005]]]},"properties":{"iso_3166_2":"DE-BW","name":"Baden-Württemberg","name_en":"Baden-Württemberg"}},
{"type":"Feature","geometry":{"type":"Polygon","coordinates":[[[14.607964828000092,52.596462963000064],[14.49010217300011,52.65063751200002],[14.382201782000095,52.738151551],[14.12392297300002,52.850651144000054],[14.16081994600006,52.87674774200006],[14.14449019300011,52.95992096000005],[14.343341105000036,53.04862355500005],[14.389539835000107,53.131667583000095],[14.377860962000113,53.1765485640001],[14.441629680000062,53.25184112600006],[14.39126051076397,53.334017003581835],[14.248843599952181,53.25913493722754],[14.103201531425498,53.272510891264574],[14.239509950124102,53.382027997194314],[14.24262116643365,53.427140640428206],[14.141506623331964,53.439585507465154],[14.09639398099739,53.41936259830521],[13.920610236573168,53.427140640428206],[13.869275161619385,53.50803227436995],[13.797717178405037,53.54225565827198],[13.808606435938259,53.48469814890041],[13.709047501441034,53.47536449907233],[13.607107781798675,53.41141714108818],[13.538946567629978,53.396663520105335],[13.493522983798641,53.31932973907618],[13.40582807840309,53.274681302500085],[13.282321404709023,53.287781277084264],[13.230489942656732,53.23318512639247],[13.154008823248603,53.259281725471226],[13.000994907588904,53.16765941145263],[12.949163446435875,53.195513007019656],[12.86642947843768,53.18535858822821],[12.743542920569325,53.19866526928672],[12.739667188789724,53.2245551618912],[12.512187534427142,53.272691758417864],[12.430125359997362,53.26848012985408],[12.339174838647864,53.3162549911749],[12.186936069344085,53.36896495237062],[12.06373945491191,53.35612335840625],[12.011878784678174,53.299580755547424],[11.815950962067234,53.25010915771145],[11.8392062565635,53.226467161929975],[11.744314146980287,53.21557790349743],[11.700195753731009,53.24837799784632],[11.59963341594937,53.237319241489786],[11.535709669665493,53.20502147156361],[11.555243360892405,53.14605866177777],[11.501639243356408,53.11913018530976],[11.398969093448898,53.133130660951224],[11.39430226673619,53.10824092687727],[11.274089929306797,53.11754382708591],[11.327608676898933,53.07241974537493],[11.416853875006325,53.08089468024525],[11.58133995907184,53.04286082656586],[11.76287926566556,52.99511180276744],[11.831867303033619,52.92824249889219],[11.965502557097295,52.88522187029304],[12.092936639414347,52.89165558513713],[12.20326582235981,52.865920722163594],[12.233186476374783,52.81631134729082],[12.191018507598017,52.73897756626167],[12.228070509346537,52.690169176166535],[12.16197635272647,52.63608978941221],[12.12425255740959,52.555035305335025],[12.149574009233106,52.51994700834774],[12.208381789388056,52.54113434507394],[12.286723259870541,52.48421275531439],[12.247035759792482,52.44235484490014],[12.209001906113087,52.27900564239644],[12.248069288566796,52.25241811780188],[12.199080031318374,52.193920396908766],[12.260523308903544,52.12829132828216],[12.42082360192768,52.011605943059806],[12.466557245020851,52.02152781785446],[12.607633905180592,51.96540721287255],[12.66675174279868,51.994449367744096],[12.871907178873187,51.91287811972944],[12.95117882714112,51.906935330401154],[13.066158888222105,51.852649238071876],[13.236846144034303,51.855491441077106],[13.163465610049855,51.789035550150516],[13.181604038195815,51.70854950595492],[13.061663038818153,51.61509267838437],[13.171527133770212,51.566206773024135],[13.210491164335735,51.490862535177826],[13.18765018121087,51.385235908110644],[13.252194045119097,51.385235908110644],[13.410789014901127,51.42140940981636],[13.521738314571564,51.366942451233115],[13.766477898835944,51.34797719988785],[13.970341423717741,51.35919098587527],[14.06702802882046,51.47386098949306],[14.158753695626558,51.526881009051294],[14.268927849840395,51.53235871038618],[14.338587680776811,51.509931139310595],[14.509274936589065,51.55685333901039],[14.595367873328655,51.5624860699761],[14.706769960000116,51.54082806400008],[14.743936808000086,51.606644390000056],[14.719545532000069,51.67563242600001],[14.648438761000136,51.7172061160001],[14.585806925000043,51.803893332000044],[14.595935507000064,51.84241811200012],[14.695567667000148,51.931456604000104],[14.699081665000108,51.992512309000105],[14.76140344300012,52.07666737900006],[14.686369263000131,52.12103159600012],[14.712104126000042,52.21544443800006],[14.696911255000117,52.2534782930001],[14.606580851000075,52.27575083500007],[14.539814901000113,52.42186594700006],[14.632315715000061,52.49674509800009],[14.644821411000066,52.576921082000084],[14.607964828000092,52.596462963000064]],[[13.626331413763694,52.487029119897954],[13.750923293075516,52.45028717741127],[13.705344678713914,52.374271145097225],[13.637338495075483,52.37597646744001],[13.458124626650203,52.41674917313583],[13.42567182799246,52.38109243446826],[13.294258661108302,52.41509552673716],[13.156489291947253,52.396853745803696],[13.093650750381812,52.41871287699763],[13.157419467934062,52.60030386043479],[13.302785271922744,52.65619192231935],[13.379783156167719,52.62627126740506],[13.468511590337584,52.66332326915352],[13.56907392721996,52.5634068874179],[13.647570428232655,52.539273993999586],[13.626331413763694,52.487029119897954]]]},"properties":{"iso_3166_2":"DE-BB","name":"Brandenburg","name_en":"Brandenburg"}},
{"type":"Feature","geometry":{"type":"MultiPolygon","coordinates":[[[[14.263900720257396,53.69997615968076],[14.226573113000086,53.758693752000056],[14.106130405000044,53.743353583000044],[13.984222852000073,53.77399323100008],[13.862803582000083,53.84125397300005],[13.817067905000044,53.85293203300006],[13.818532748000052,53.87799713700008],[13.90601647200009,53.943060614000046],[13.746104363000086,54.036444403000075],[13.77320397200009,54.04633209800005],[13.808116082000083,54.104681708000044],[13.728770379000082,54.143866278000075],[13.698252800000091,54.15314362200007],[13.479258660000085,54.12518952000005],[13.465098504000082,54.09845612200007],[13.383799675000091,54.17812734600005],[13.28882897200009,54.23427969000005],[13.11491946700005,54.28001536700003],[13.034190300000091,54.433661200000074],[12.969086134000065,54.429388739000046],[12.875987175000091,54.36542389500005],[12.787119988000086,54.39207591400003],[12.677256707000083,54.39207591400003],[12.478688998000052,54.33185455900008],[12.412445509000065,54.25141022300005],[12.362559441000087,54.310207424000055],[12.45476321700005,54.39207591400003],[12.52702884200005,54.372259833000044],[12.624196811000047,54.42291901200008],[12.694590691000087,54.433661200000074],[12.87077884200005,54.41681549700007],[12.879649285000085,54.44879791900007],[12.59148196700005,54.45172760600008],[12.501963738000086,54.47357819200005],[12.342133009000065,54.303941148000035],[12.18685957100007,54.243353583000044],[12.10132897200009,54.17365143400008],[12.050629102000073,54.17991771000004],[11.81226647200009,54.14980703300006],[11.65788821700005,54.142238674000055],[11.619395379000082,54.07729726800005],[11.491709832000083,54.00234609600005],[11.457692905000044,53.90615469000005],[11.334157748000052,53.961371161000045],[11.242930535000085,53.94521719000005],[11.245371941000087,53.97842031500005],[11.175059441000087,54.018011786000045],[11.053477410000085,54.00849030200004],[10.90601647200009,53.96120840100008],[10.904171990844702,53.931282049826734],[10.763250360315851,53.8650587019975],[10.76092492034877,53.7466938337534],[10.938123407169485,53.68470795290966],[10.954401483341769,53.56613637998993],[10.828259312217483,53.56742829028332],[10.820352817228695,53.514795844352705],[10.635402865949516,53.44523936620374],[10.601244744948985,53.371832993797625],[10.731572707114708,53.351989244208255],[10.739427524360735,53.30845184987294],[10.930216912180754,53.22845673299179],[11.089431999587077,53.14419830980415],[11.143433871975617,53.172672023894734],[11.274089929306797,53.11754382708591],[11.39430226673619,53.10824092687727],[11.398969093448898,53.133130660951224],[11.501639243356408,53.11913018530976],[11.555243360892405,53.14605866177777],[11.535709669665493,53.20502147156361],[11.59963341594937,53.237319241489786],[11.700195753731009,53.24837799784632],[11.744314146980287,53.21557790349743],[11.8392062565635,53.226467161929975],[11.815950962067234,53.25010915771145],[12.011878784678174,53.299580755547424],[12.06373945491191,53.35612335840625],[12.186936069344085,53.36896495237062],[12.339174838647864,53.3162549911749],[12.430125359997362,53.26848012985408],[12.512187534427142,53.272691758417864],[12.739667188789724,53.2245551618912],[12.743542920569325,53.19866526928672],[12.86642947843768,53.18535858822821],[12.949163446435875,53.195513007019656],[13.000994907588904,53.16765941145263],[13.154008823248603,53.259281725471226],[13.230489942656732,53.23318512639247],[13.282321404709023,53.287781277084264],[13.40582807840309,53.274681302500085],[13.493522983798641,53.31932973907618],[13.538946567629978,53.396663520105335],[13.607107781798675,53.41141714108818],[13.709047501441034,53.47536449907233],[13.808606435938259,53.48469814890041],[13.797717178405037,53.54225565827198],[13.869275161619385,53.50803227436995],[13.920610236573168,53.427140640428206],[14.09639398099739,53.41936259830521],[14.141506623331964,53.439585507465154],[14.24262116643365,53.427140640428206],[14.239509950124102,53.382027997194314],[14.103201531425498,53.272510891264574],[14.248843599952181,53.25913493722754],[14.39126051076397,53.334017003581835],[14.359877564000044,53.444077454000094],[14.304170370000094,53.50851796500011],[14.263900720257396,53.69997615968076]]],[[[14.210052931000064,53.93846263200004],[14.016612175000091,54.06000397300005],[13.88249759200005,54.102443752000056],[13.814952019000089,54.17365143400008],[13.752940300000091,54.15314362200007],[13.806162957000083,54.11664459800005],[13.814952019000089,54.101263739000046],[13.809255405000044,54.075100002000056],[13.774099155000044,54.022772528000075],[13.871104363000086,54.04865143400008],[13.855967644000089,54.00234609600005],[13.946055535000085,54.06659577000005],[14.037445509000065,54.02171458500004],[14.048350457000083,53.94086334800005],[13.972666863000086,53.98924388200004],[13.904470248000052,53.995428778000075],[13.931651238000086,53.899318752000056],[13.821787957000083,53.86513906500005],[13.875254754000082,53.84406159100007],[13.99586022200009,53.85374583500004],[14.048350457000083,53.87938060100004],[14.200818737000134,53.87815729300003],[14.210052931000064,53.93846263200004]]],[[[11.375661655000044,53.98183828300006],[11.468272332000083,53.970689195000034],[11.468028191000087,54.030951239000046],[11.375661655000044,53.98183828300006]]],[[[13.143402540000068,54.59813060100004],[13.109629754000082,54.60309479400007],[13.06421959700009,54.505113023000035],[13.143402540000068,54.59813060100004]]],[[[13.698252800000091,54.39207591400003],[13.609548373000052,54.41380442900004],[13.575450066000087,54.471869208000044],[13.677256707000083,54.54047272300005],[13.640472852000073,54.58567942900004],[13.466319207000083,54.57689036700003],[13.394541863000086,54.60443756700005],[13.390798373000052,54.68817780200004],[13.25359134200005,54.66502513200004],[13.290537957000083,54.646551825000074],[13.273285352000073,54.56093984600005],[13.369151238000086,54.61212799700007],[13.441416863000086,54.55719635600008],[13.49968509200005,54.55719635600008],[13.507090691000087,54.488267320000034],[13.430674675000091,54.49274323100008],[13.369395379000082,54.585150458000044],[13.288259311000047,54.539943752000056],[13.166351759000065,54.54938385600008],[13.25953209700009,54.468451239000046],[13.156993035000085,54.42682526200008],[13.239024285000085,54.42007070500006],[13.251149936000047,54.38690827000005],[13.148936394000089,54.37726471600007],[13.115489129000082,54.33808014500005],[13.267914259000065,54.25649648600006],[13.423024936000047,54.23273346600007],[13.363129102000073,54.263006903000075],[13.49968509200005,54.344916083000044],[13.766449415000068,54.344916083000044],[13.698252800000091,54.39207591400003]]]]},"properties":{"iso_3166_2":"DE-MV","name":"Mecklenburg-Vorpommern","name_en":"Mecklenburg-Western Pomerania"}},
{"type":"Feature","geometry":{"type":"MultiPolygon","coordinates":[[[[8.557203417412692,53.51994079673261],[8.639090610143512,53.51665619632638],[8.625293002669935,53.604997056868626],[8.513037633902382,53.61709671821125],[8.56576582100007,53.54669830900008],[8.557203417412692,53.51994079673261]]],[[[8.56446984180974,53.21179108319188],[8.702704298964193,53.079861152370256],[8.702394239702414,53.051129054961905],[8.865950147781064,53.04751170470138],[8.914525994778842,53.02461904653177],[8.972713657309441,53.05257599488624],[8.975194126008091,53.13468984615946],[8.91235558444265,53.1393407251943],[8.745544061309374,53.191611436818334],[8.56446984180974,53.21179108319188]]]]},"properties":{"iso_3166_2":"DE-HB","name":"Bremen","name_en":"Free Hanseatic Bremen"}},
{"type":"Feature","geometry":{"type":"Polygon","coordinates":[[[9.763971799359012,53.54767968357049],[9.76842736183329,53.50815542303434],[9.857207471947277,53.432862861132094],[9.985365023776808,53.41506032977037],[10.083136833597962,53.45089793649055],[10.186541375284207,53.40438914704146],[10.327979770649904,53.43265615555708],[10.186644728071713,53.52531199834999],[10.17315717896065,53.573784492560264],[10.222766553833367,53.63365163811261],[10.164733920933713,53.68452708575637],[10.194861281422959,53.72253510191342],[10.092903679661049,53.72018382442394],[10.065153435982268,53.68080638270834],[9.927332390877098,53.64566640887762],[9.828630405069134,53.59724559241016],[9.76842736183329,53.62918162713038],[9.74081038148496,53.57257470347835],[9.763971799359012,53.54767968357049]]]},"properties":{"iso_3166_2":"DE-HH","name":"Hamburg","name_en":"Hamburg"}},
{"type":"Feature","geometry":{"type":"Polygon","coordinates":[[[9.949243198015154,51.38179942500341],[9.904233026233157,51.41696523725585],[9.71365034308883,51.36379018806667],[9.762071161354982,51.309323229483425],[9.569369744717903,51.34234446892208],[9.582082146573782,51.39882680910995],[9.63251834464586,51.40094554350202],[9.638719517291861,51.46802155205296],[9.596809930034226,51.51158478480994],[9.643990513051733,51.57191701925501],[9.686055129040938,51.57194285677741],[9.623371616207123,51.629458727538236],[9.440075311326552,51.649044093809835],[9.3330534202791,51.606669420357434],[9.354292432949421,51.589512844142405],[9.296259800049711,51.51757925098161],[9.214766066400841,51.45866811803921],[9.108674351340255,51.4429068058044],[9.015398390023677,51.509155992055355],[8.90615441179665,51.48091482196145],[8.935144890724132,51.39128205022644],[8.685496046805099,51.363428452860774],[8.578112419652427,51.27594025304023],[8.603588901106889,51.24255727839568],[8.716863640744407,51.271134345273765],[8.750194940344215,51.17279409377238],[8.658365919851292,51.08835480433072],[8.524730665787558,51.09331574172808],[8.544884473739444,51.02065867815543],[8.44406375533805,50.91601390211986],[8.364120314400964,50.861598619480674],[8.299576449593474,50.880873928289134],[8.139276156569338,50.784962470441656],[8.175139600811917,50.74207103125309],[8.134470248802927,50.68403839835338],[8.121602817316159,50.645797838199655],[8.16382246293631,50.58580150053882],[8.10718509311755,50.526528632390466],[8.041556023591625,50.54446035406204],[8.00445234499972,50.52074087179375],[8.019180129359484,50.45490509669281],[7.980061069163014,50.3957872581754],[8.022280714783165,50.38912099933464],[8.122688022933914,50.27791331634643],[8.045741814633004,50.26334056341625],[7.922183464994873,50.20008860890215],[7.896758661283172,50.15502676027671],[7.9217183770014685,50.10880219256711],[7.854539014763702,50.115778509770394],[7.771391635615487,50.05348257146346],[7.9185661147344035,49.97387502731061],[8.173796013675087,50.04578278294906],[8.228107944426085,50.03818634722211],[8.335439893835996,49.95963817026529],[8.340090772870838,49.89101186810319],[8.42380659280002,49.76729848883417],[8.473829379722076,49.75745412930462],[8.379209832167987,49.71040273749634],[8.360554640084558,49.664462388828156],[8.416830274697418,49.579454657706265],[8.498220655558782,49.57338267716881],[8.566175164152469,49.5273131372914],[8.617386508580466,49.547079373414306],[8.601366814826633,49.61097728127646],[8.671543409700575,49.62255280246984],[8.718103875093732,49.54178253833345],[8.890496453248716,49.5061258005652],[8.848896926152179,49.48338817022784],[8.812568393916251,49.40424571406845],[8.84626142692332,49.3962875431356],[8.945583530355634,49.45509532329049],[8.957830845117371,49.503697007810615],[9.125262484975678,49.5160993522033],[9.11068973114618,49.57511383703394],[9.07265587656741,49.61087392848896],[9.133324008696036,49.69598501239835],[9.140920444422932,49.78734894489787],[9.07017540876808,49.8305762799713],[9.026715528798604,49.90739329706298],[9.026870558429493,50.043147285518785],[8.976589389988362,50.05278493947333],[9.01028242389475,50.09683909774611],[9.107899204085015,50.125416165523575],[9.152547641560375,50.11229035071909],[9.22877037944943,50.14381297518861],[9.329126010756795,50.139291287362994],[9.406744011726744,50.09234324834222],[9.506686231884089,50.108104560576976],[9.528700391809593,50.168617662175336],[9.511027051657095,50.23621043646244],[9.661198765210827,50.23435008448877],[9.680319045287717,50.27951528590171],[9.74858361224392,50.30556020813708],[9.766722038591183,50.40209178270959],[9.858912795189326,50.39899119728591],[10.000867953593172,50.448445543427056],[10.055024854713281,50.51650340390893],[10.05207929892049,50.66956899731133],[9.95094852125726,50.662747707940355],[9.943300408686923,50.627142646116226],[9.87767134006026,50.64360159034112],[9.913224725041005,50.69266836195533],[9.9493982276461,50.81519318281909],[10.01874800022,50.8316779654657],[10.05595503070009,50.882630927475304],[9.95590945775524,50.94185211878022],[10.041382276870593,50.94092194279341],[10.05114912293368,51.00701610031274],[10.187884963320414,50.99569896153781],[10.19315595908023,51.04484324841718],[10.142409701746317,51.05523021120524],[10.173622266954055,51.14483714541791],[10.1964115741348,51.11587250401283],[10.230259636772814,51.18431793902164],[10.081276483422982,51.22323029184446],[10.049133742228435,51.27656036976521],[9.947021111734898,51.303948880036785],[9.949243198015154,51.38179942500341]]]},"properties":{"iso_3166_2":"DE-HE","name":"Hessen","name_en":"Hesse"}},
{"type":"Feature","geometry":{"type":"Polygon","coordinates":[[[9.949243198015154,51.38179942500341],[9.947021111734898,51.303948880036785],[10.049133742228435,51.27656036976521],[10.081276483422982,51.22323029184446],[10.230259636772814,51.18431793902164],[10.1964115741348,51.11587250401283],[10.173622266954055,51.14483714541791],[10.142409701746317,51.05523021120524],[10.19315595908023,51.04484324841718],[10.187884963320414,50.99569896153781],[10.05114912293368,51.00701610031274],[10.041382276870593,50.94092194279341],[9.95590945775524,50.94185211878022],[10.05595503070009,50.882630927475304],[10.01874800022,50.8316779654657],[9.9493982276461,50.81519318281909],[9.913224725041005,50.69266836195533],[9.87767134006026,50.64360159034112],[9.943300408686923,50.627142646116226],[9.95094852125726,50.662747707940355],[10.05207929892049,50.66956899731133],[10.055024854713281,50.51650340390893],[10.126131625574033,50.562857163727074],[10.238011102130656,50.510121365008956],[10.318678012580222,50.492370510490616],[10.499752231180537,50.35351593751051],[10.591322870154329,50.32597239850736],[10.617057733127865,50.22440237127239],[10.726611768818088,50.210423895746146],[10.731572707114708,50.24230825542162],[10.840196566818065,50.242049872103905],[10.837871127750304,50.27166046775636],[10.714984571680645,50.32194163709687],[10.788881869602562,50.38625295700831],[10.943394402929357,50.387338161726746],[10.987939486717949,50.34989858724998],[11.112531366029714,50.365194811491335],[11.13537234915458,50.30933258712918],[11.192319777335854,50.27155711496886],[11.255313347632864,50.27486440686687],[11.2802730651498,50.358631904538754],[11.248647087892778,50.47263011278943],[11.346728956975767,50.5187254910885],[11.427085809062817,50.51309276012273],[11.42119469567865,50.443045356458015],[11.531678908255003,50.37842397728468],[11.796727329202895,50.41351227517134],[11.828818393554002,50.39105886477478],[11.90529951296213,50.41516592157001],[11.925815057019236,50.48839142502425],[11.989428744940597,50.546114000460705],[12.048546584357382,50.53156708415361],[12.145388218191727,50.562547106263935],[12.186936069344085,50.62636749886093],[12.252926873176648,50.626315822916865],[12.321811557757144,50.67401316987184],[12.24124800009514,50.72217560482028],[12.285483026420536,50.769304510994345],[12.258042840204894,50.79250722932517],[12.424389276244085,50.82433991125788],[12.527535434612616,50.87658478535951],[12.610889520235162,50.870125231194436],[12.647218051571826,50.8999425324219],[12.54572553870264,50.97125600885772],[12.48366214439244,51.05833079752824],[12.328942904591372,51.08783804039325],[12.26455407121341,51.08375560213932],[12.275406121095614,51.00975495142984],[12.200785352761784,50.927899482575015],[12.15949588402782,50.952006537571606],[12.004621616394445,50.94903514335715],[11.860651076386034,51.02262238201729],[11.732596877344008,51.01745473904492],[11.689136997374533,51.09186880090442],[11.427395868324652,51.0987934430629],[11.420264519691841,51.15966828076654],[11.333034702289638,51.21630564968598],[11.451890496049543,51.27149608047972],[11.367192824189488,51.35748566353254],[11.314896274143734,51.383323880192904],[10.99910159676125,51.408748683904605],[10.91145836820914,51.57111603537669],[10.945564813265491,51.594732163958156],[10.803454624331437,51.63255931296192],[10.697621290789925,51.63736522072833],[10.610391473387779,51.572562975301025],[10.51422163312185,51.55628489822942],[10.42172081906051,51.591864122531206],[10.239561394842497,51.47210399030689],[10.19470625179207,51.47939036677201],[10.149696079110754,51.4317963735038],[10.045723096643599,51.432106431866316],[9.949243198015154,51.38179942500341]]]},"properties":{"iso_3166_2":"DE-TH","name":"Thüringen","name_en":"Thuringia"}},
{"type":"Feature","geometry":{"type":"Polygon","coordinates":[[[10.697621290789925,51.63736522072833],[10.803454624331437,51.63255931296192],[10.945564813265491,51.594732163958156],[10.91145836820914,51.57111603537669],[10.99910159676125,51.408748683904605],[11.314896274143734,51.383323880192904],[11.367192824189488,51.35748566353254],[11.451890496049543,51.27149608047972],[11.333034702289638,51.21630564968598],[11.420264519691841,51.15966828076654],[11.427395868324652,51.0987934430629],[11.689136997374533,51.09186880090442],[11.732596877344008,51.01745473904492],[11.860651076386034,51.02262238201729],[12.004621616394445,50.94903514335715],[12.15949588402782,50.952006537571606],[12.200785352761784,50.927899482575015],[12.275406121095614,51.00975495142984],[12.26455407121341,51.08375560213932],[12.222644483955776,51.08897492105575],[12.153294712281138,51.170003566711216],[12.168022494842262,51.19744375292686],[12.132314080230628,51.291753242118375],[12.18166507268495,51.32477448245635],[12.157015415329113,51.449004624763575],[12.235356885811598,51.562150174091244],[12.30594689273488,51.55225413681893],[12.430590447990767,51.57245962251352],[12.443457878578215,51.60145010054168],[12.66210086376384,51.60145010054168],[12.715327589796402,51.63819204392763],[12.781576776047359,51.62700409636193],[12.862036980921914,51.668319404416934],[13.061663038818153,51.61509267838437],[13.181604038195815,51.70854950595492],[13.163465610049855,51.789035550150516],[13.236846144034303,51.855491441077106],[13.066158888222105,51.852649238071876],[12.95117882714112,51.906935330401154],[12.871907178873187,51.91287811972944],[12.66675174279868,51.994449367744096],[12.607633905180592,51.96540721287255],[12.466557245020851,52.02152781785446],[12.42082360192768,52.011605943059806],[12.260523308903544,52.12829132828216],[12.199080031318374,52.193920396908766],[12.248069288566796,52.25241811780188],[12.209001906113087,52.27900564239644],[12.247035759792482,52.44235484490014],[12.286723259870541,52.48421275531439],[12.208381789388056,52.54113434507394],[12.149574009233106,52.51994700834774],[12.12425255740959,52.555035305335025],[12.16197635272647,52.63608978941221],[12.228070509346537,52.690169176166535],[12.191018507598017,52.73897756626167],[12.233186476374783,52.81631134729082],[12.20326582235981,52.865920722163594],[12.092936639414347,52.89165558513713],[11.965502557097295,52.88522187029304],[11.831867303033619,52.92824249889219],[11.76287926566556,52.99511180276744],[11.58133995907184,53.04286082656586],[11.506822544424892,53.00113210736083],[11.502016635759105,52.94415884075789],[11.412358025602373,52.90643504544096],[11.248181999899373,52.877857978562815],[11.213558790905438,52.897753404096306],[11.014656203421055,52.9118610699324],[10.960654331032515,52.865145575807674],[10.762010125067206,52.838377184059766],[10.75689415893828,52.78649404606335],[10.919829950291955,52.61947581645575],[10.97770755356072,52.61317129192156],[10.953678012929913,52.54547516484695],[11.001737095090846,52.49813955309787],[10.939053582256975,52.46212108012372],[11.072998894683224,52.372178250026195],[10.999256626392196,52.342490139108634],[11.01475955620856,52.28740306290098],[11.082920770377257,52.225132962116504],[11.019307081556576,52.18686656444038],[11.0382206560584,52.131701972068356],[10.947735222702363,52.096975410286916],[10.968405796390357,52.064574285774654],[10.652456089376983,52.042611802692534],[10.570083855685368,52.006800035293395],[10.644549595287572,51.95868927718834],[10.63989871625273,51.88355174401772],[10.58016076011097,51.844897772714035],[10.585276727139217,51.77792511695054],[10.664083285615106,51.707231757239754],[10.697621290789925,51.63736522072833]]]},"properties":{"iso_3166_2":"DE-ST","name":"Sachsen-Anhalt","name_en":"Saxony-Anhalt"}},
{"type":"Feature","geometry":{"type":"Polygon","coordinates":[[[13.626331413763694,52.487029119897954],[13.647570428232655,52.539273993999586],[13.56907392721996,52.5634068874179],[13.468511590337584,52.66332326915352],[13.379783156167719,52.62627126740506],[13.302785271922744,52.65619192231935],[13.157419467934062,52.60030386043479],[13.093650750381812,52.41871287699763],[13.156489291947253,52.396853745803696],[13.294258661108302,52.41509552673716],[13.42567182799246,52.38109243446826],[13.458124626650203,52.41674917313583],[13.637338495075483,52.37597646744001],[13.705344678713914,52.374271145097225],[13.750923293075516,52.45028717741127],[13.626331413763694,52.487029119897954]]]},"properties":{"iso_3166_2":"DE-BE","name":"Berlin","name_en":"Berlin"}}
]}