{"type":"FeatureCollection","source":"Stats NZ Geographic Data Service — Regional Council 2025","sourceUrl":"https://datafinder.stats.govt.nz/layer/120946-regional-council-2025/","retrievedAt":"2026-07-13T01:17:37.032Z","features":[{"type":"Feature","properties":{"code":"NTL","name":"Northland"},"geometry":{"type":"Polygon","coordinates":[[[174.97,-35.582],[174.942,-35.647],[174.886,-35.702],[174.913,-35.722],[174.905,-35.83],[174.871,-35.91],[174.812,-35.984],[174.606,-36.122],[174.58,-36.167],[174.478,-36.23],[174.468,-36.26],[174.454,-36.253],[174.342,-36.32],[174.239,-36.296],[174.193,-36.402],[173.897,-36.559],[173.815,-36.478],[173.775,-36.351],[173.719,-36.272],[173.461,-35.98],[173.239,-35.758],[173.107,-35.583],[172.841,-35.292],[172.813,-35.224],[172.814,-35.146],[172.843,-35.077],[172.891,-35.022],[172.673,-34.779],[172.431,-34.582],[172.393,-34.484],[172.408,-34.394],[172.517,-34.272],[172.614,-34.227],[172.758,-34.231],[173.018,-34.194],[173.144,-34.22],[173.238,-34.28],[173.29,-34.362],[173.294,-34.45],[173.243,-34.565],[173.49,-34.588],[173.559,-34.625],[173.695,-34.742],[174.059,-34.788],[174.145,-34.837],[174.232,-34.956],[174.394,-34.968],[174.481,-34.999],[174.567,-35.087],[174.586,-35.21],[174.622,-35.267],[174.709,-35.245],[174.8,-35.25],[174.879,-35.281],[174.945,-35.337],[174.979,-35.394],[174.993,-35.471],[174.97,-35.582]]]}},{"type":"Feature","properties":{"code":"AUK","name":"Auckland"},"geometry":{"type":"Polygon","coordinates":[[[174.617,-36.118],[174.794,-35.999],[174.857,-35.93],[174.906,-35.826],[174.911,-35.713],[174.932,-35.725],[175.02,-35.7],[175.143,-35.7],[175.217,-35.716],[175.306,-35.76],[175.379,-35.825],[175.485,-35.834],[175.571,-35.873],[175.742,-36.04],[175.763,-36.11],[175.755,-36.186],[175.779,-36.228],[175.903,-36.258],[175.628,-36.385],[175.417,-36.38],[175.251,-36.4],[175.163,-36.524],[175.267,-36.704],[175.311,-36.838],[175.379,-36.963],[175.389,-37.022],[175.185,-37.041],[175.161,-37.016],[175.141,-37.099],[175.154,-37.136],[175.131,-37.186],[175.09,-37.18],[175.074,-37.195],[175.054,-37.181],[174.99,-37.217],[174.973,-37.195],[174.948,-37.196],[174.93,-37.206],[174.931,-37.233],[174.887,-37.231],[174.85,-37.251],[174.848,-37.234],[174.806,-37.227],[174.739,-37.268],[174.7,-37.262],[174.659,-37.293],[174.426,-37.363],[174.339,-37.214],[174.253,-37.132],[174.17,-36.867],[174.141,-36.822],[173.994,-36.639],[173.897,-36.559],[174.193,-36.402],[174.239,-36.297],[174.356,-36.316],[174.454,-36.253],[174.468,-36.26],[174.478,-36.229],[174.58,-36.167],[174.585,-36.143],[174.617,-36.118]]]}},{"type":"Feature","properties":{"code":"WKO","name":"Waikato"},"geometry":{"type":"Polygon","coordinates":[[[175.538,-38.47],[175.542,-38.481],[175.439,-38.493],[175.415,-38.528],[175.383,-38.542],[175.378,-38.573],[175.336,-38.582],[175.325,-38.551],[175.303,-38.571],[175.302,-38.599],[175.285,-38.588],[175.222,-38.636],[175.116,-38.622],[175,-38.666],[174.957,-38.665],[174.964,-38.697],[174.935,-38.731],[174.938,-38.75],[174.863,-38.775],[174.794,-38.731],[174.754,-38.745],[174.617,-38.723],[174.615,-38.706],[174.351,-38.702],[174.375,-38.582],[174.381,-38.353],[174.406,-38.296],[174.451,-38.247],[174.452,-38.21],[174.427,-38.138],[174.369,-38.096],[174.332,-38.047],[174.316,-37.947],[174.34,-37.883],[174.379,-37.838],[174.448,-37.795],[174.532,-37.773],[174.562,-37.728],[174.482,-37.596],[174.447,-37.41],[174.426,-37.363],[174.659,-37.293],[174.7,-37.262],[174.739,-37.268],[174.806,-37.227],[174.848,-37.234],[174.85,-37.251],[174.887,-37.231],[174.931,-37.233],[174.93,-37.206],[174.948,-37.196],[174.973,-37.195],[174.99,-37.217],[175.054,-37.181],[175.074,-37.195],[175.09,-37.18],[175.131,-37.186],[175.154,-37.136],[175.141,-37.099],[175.161,-37.016],[175.185,-37.041],[175.389,-37.022],[175.379,-36.963],[175.311,-36.838],[175.267,-36.704],[175.163,-36.524],[175.251,-36.4],[175.417,-36.38],[175.628,-36.385],[175.903,-36.258],[175.988,-36.321],[176.033,-36.403],[176.096,-36.434],[176.15,-36.486],[176.197,-36.614],[176.166,-36.731],[176.296,-36.811],[176.349,-36.894],[175.94,-37.373],[175.917,-37.379],[175.925,-37.404],[175.904,-37.406],[175.913,-37.426],[175.861,-37.461],[175.899,-37.496],[175.866,-37.5],[175.833,-37.472],[175.814,-37.485],[175.806,-37.511],[175.831,-37.537],[175.812,-37.564],[175.841,-37.613],[175.841,-37.642],[175.928,-37.776],[175.906,-37.829],[175.935,-37.843],[175.936,-37.881],[175.972,-37.883],[175.954,-37.902],[175.977,-37.914],[175.941,-37.928],[175.949,-37.957],[175.971,-37.986],[176.013,-37.993],[176.062,-38.027],[176.077,-38.089],[176.063,-38.095],[176.09,-38.167],[176.11,-38.167],[176.15,-38.218],[176.19,-38.196],[176.222,-38.238],[176.281,-38.219],[176.39,-38.323],[176.44,-38.313],[176.447,-38.357],[176.469,-38.359],[176.505,-38.402],[176.475,-38.544],[176.255,-38.808],[176.258,-38.89],[176.243,-38.917],[176.258,-38.948],[176.146,-39.04],[176.178,-39.066],[176.173,-39.078],[176.114,-39.091],[176.088,-39.13],[176.023,-39.083],[175.989,-39.116],[175.964,-39.18],[175.886,-39.206],[175.893,-39.224],[175.855,-39.244],[175.868,-39.263],[175.813,-39.3],[175.752,-39.288],[175.669,-39.297],[175.558,-39.276],[175.635,-39.158],[175.648,-39.1],[175.619,-39.083],[175.614,-39.051],[175.636,-39.045],[175.682,-38.98],[175.563,-38.987],[175.569,-38.97],[175.554,-38.957],[175.58,-38.911],[175.545,-38.864],[175.578,-38.825],[175.518,-38.751],[175.58,-38.682],[175.576,-38.65],[175.629,-38.601],[175.637,-38.552],[175.612,-38.488],[175.565,-38.495],[175.538,-38.47]]]}},{"type":"Feature","properties":{"code":"BOP","name":"Bay of Plenty"},"geometry":{"type":"Polygon","coordinates":[[[176.267,-38.214],[176.232,-38.239],[176.19,-38.196],[176.15,-38.218],[176.083,-38.153],[176.062,-38.027],[176.013,-37.993],[175.971,-37.986],[175.953,-37.962],[175.941,-37.929],[175.977,-37.914],[175.954,-37.902],[175.972,-37.883],[175.936,-37.881],[175.935,-37.843],[175.906,-37.829],[175.928,-37.776],[175.834,-37.627],[175.841,-37.613],[175.811,-37.561],[175.831,-37.536],[175.806,-37.508],[175.833,-37.472],[175.866,-37.5],[175.899,-37.496],[175.861,-37.461],[175.913,-37.426],[175.904,-37.406],[175.925,-37.404],[175.917,-37.379],[175.94,-37.373],[176.349,-36.894],[176.352,-36.988],[176.313,-37.067],[176.411,-37.099],[176.488,-37.16],[176.53,-37.252],[176.515,-37.353],[176.72,-37.479],[176.809,-37.623],[176.95,-37.623],[176.889,-37.544],[176.879,-37.451],[176.924,-37.361],[177.021,-37.297],[177.111,-37.276],[177.206,-37.284],[177.28,-37.313],[177.393,-37.39],[177.444,-37.482],[177.438,-37.582],[177.4,-37.644],[177.341,-37.694],[177.272,-37.725],[177.19,-37.737],[177.224,-37.784],[177.247,-37.79],[177.311,-37.789],[177.349,-37.766],[177.545,-37.539],[177.617,-37.496],[177.702,-37.476],[177.838,-37.369],[177.941,-37.336],[178.065,-37.338],[178.085,-37.542],[178.108,-37.599],[177.98,-37.613],[177.998,-37.69],[177.977,-37.741],[177.994,-37.764],[178.039,-37.733],[178.073,-37.764],[177.972,-37.845],[177.861,-38.112],[177.724,-38.023],[177.681,-38.012],[177.674,-38.025],[177.697,-38.063],[177.677,-38.087],[177.703,-38.106],[177.664,-38.117],[177.654,-38.159],[177.602,-38.171],[177.605,-38.187],[177.533,-38.218],[177.501,-38.213],[177.482,-38.24],[177.498,-38.261],[177.464,-38.334],[177.237,-38.426],[177.255,-38.513],[177.241,-38.51],[177.226,-38.534],[177.203,-38.524],[177.167,-38.578],[177.12,-38.585],[177.1,-38.627],[177.078,-38.611],[177.046,-38.621],[176.972,-38.705],[176.929,-38.698],[176.887,-38.667],[176.823,-38.691],[176.773,-38.684],[176.743,-38.728],[176.714,-38.728],[176.708,-38.789],[176.692,-38.806],[176.704,-38.827],[176.697,-38.856],[176.678,-38.856],[176.652,-38.822],[176.59,-38.835],[176.561,-38.8],[176.52,-38.797],[176.495,-38.881],[176.442,-38.92],[176.468,-38.942],[176.435,-38.969],[176.455,-38.989],[176.448,-39.004],[176.381,-38.988],[176.358,-38.958],[176.332,-38.953],[176.311,-38.903],[176.258,-38.89],[176.255,-38.808],[176.475,-38.544],[176.505,-38.402],[176.469,-38.359],[176.447,-38.357],[176.44,-38.313],[176.391,-38.323],[176.267,-38.214]]]}},{"type":"Feature","properties":{"code":"GIS","name":"Gisborne"},"geometry":{"type":"Polygon","coordinates":[[[177.899,-38.972],[177.837,-38.956],[177.845,-38.922],[177.805,-38.912],[177.799,-38.894],[177.776,-38.913],[177.749,-38.897],[177.729,-38.919],[177.722,-38.898],[177.66,-38.905],[177.662,-38.846],[177.637,-38.871],[177.626,-38.843],[177.6,-38.852],[177.593,-38.803],[177.531,-38.82],[177.531,-38.792],[177.47,-38.755],[177.466,-38.706],[177.409,-38.699],[177.448,-38.636],[177.353,-38.625],[177.309,-38.597],[177.308,-38.66],[177.122,-38.584],[177.167,-38.578],[177.203,-38.524],[177.226,-38.534],[177.241,-38.51],[177.255,-38.513],[177.237,-38.426],[177.464,-38.334],[177.498,-38.261],[177.482,-38.24],[177.501,-38.213],[177.56,-38.209],[177.605,-38.187],[177.602,-38.171],[177.654,-38.159],[177.664,-38.117],[177.703,-38.106],[177.677,-38.087],[177.697,-38.063],[177.674,-38.025],[177.681,-38.012],[177.724,-38.023],[177.861,-38.112],[177.972,-37.845],[178.073,-37.764],[178.039,-37.733],[177.994,-37.764],[177.977,-37.741],[177.998,-37.69],[177.98,-37.613],[178.108,-37.599],[178.085,-37.542],[178.065,-37.338],[178.244,-37.334],[178.414,-37.371],[178.524,-37.439],[178.747,-37.532],[178.804,-37.588],[178.833,-37.653],[178.816,-37.764],[178.704,-37.878],[178.63,-38.03],[178.616,-38.225],[178.632,-38.311],[178.597,-38.466],[178.555,-38.536],[178.538,-38.604],[178.489,-38.675],[178.355,-38.787],[178.174,-38.895],[178.166,-38.946],[178.227,-39.002],[177.899,-38.972]]]}},{"type":"Feature","properties":{"code":"HAW","name":"Hawke's Bay"},"geometry":{"type":"Polygon","coordinates":[[[177.319,-39.43],[177.357,-39.654],[177.342,-39.711],[177.288,-39.789],[177.285,-39.889],[177.163,-40.055],[177.156,-40.12],[177.118,-40.209],[176.992,-40.352],[176.918,-40.4],[176.892,-40.493],[176.623,-40.428],[176.587,-40.431],[176.559,-40.407],[176.55,-40.421],[176.493,-40.4],[176.492,-40.412],[176.46,-40.412],[176.391,-40.378],[176.392,-40.362],[176.371,-40.359],[176.406,-40.333],[176.389,-40.323],[176.399,-40.285],[176.378,-40.272],[176.38,-40.237],[176.359,-40.198],[176.379,-40.158],[176.313,-40.124],[176.321,-40.086],[176.264,-40.063],[176.239,-40.027],[176.154,-40.012],[176.137,-40.029],[176.094,-39.996],[176.121,-39.962],[176.107,-39.917],[176.126,-39.905],[176.117,-39.887],[176.177,-39.744],[176.169,-39.718],[176.201,-39.673],[176.165,-39.649],[176.179,-39.605],[176.143,-39.58],[176.182,-39.542],[176.194,-39.505],[176.137,-39.476],[176.144,-39.448],[176.121,-39.434],[176.112,-39.385],[176.069,-39.392],[176.044,-39.372],[176.122,-39.327],[176.102,-39.315],[176.081,-39.26],[176.115,-39.219],[176.075,-39.211],[176.09,-39.2],[176.087,-39.18],[176.103,-39.177],[176.085,-39.131],[176.114,-39.091],[176.173,-39.078],[176.176,-39.064],[176.145,-39.041],[176.258,-38.948],[176.243,-38.92],[176.251,-38.892],[176.31,-38.902],[176.334,-38.954],[176.358,-38.958],[176.382,-38.988],[176.448,-39.004],[176.455,-38.989],[176.435,-38.969],[176.468,-38.942],[176.442,-38.92],[176.495,-38.881],[176.52,-38.797],[176.561,-38.8],[176.59,-38.835],[176.652,-38.822],[176.678,-38.856],[176.697,-38.856],[176.704,-38.827],[176.692,-38.806],[176.708,-38.789],[176.714,-38.728],[176.743,-38.728],[176.773,-38.684],[176.823,-38.691],[176.887,-38.667],[176.929,-38.698],[176.971,-38.705],[177.046,-38.621],[177.078,-38.611],[177.1,-38.627],[177.122,-38.584],[177.308,-38.66],[177.309,-38.597],[177.353,-38.625],[177.448,-38.636],[177.409,-38.699],[177.466,-38.706],[177.47,-38.755],[177.531,-38.792],[177.531,-38.82],[177.593,-38.803],[177.6,-38.852],[177.626,-38.843],[177.637,-38.871],[177.662,-38.846],[177.66,-38.905],[177.722,-38.898],[177.729,-38.919],[177.749,-38.897],[177.776,-38.913],[177.799,-38.894],[177.805,-38.912],[177.845,-38.922],[177.835,-38.953],[177.861,-38.965],[178.227,-39.002],[178.257,-39.064],[178.262,-39.124],[178.245,-39.181],[178.202,-39.241],[178.189,-39.341],[178.126,-39.416],[178.01,-39.477],[177.863,-39.508],[177.722,-39.474],[177.627,-39.388],[177.59,-39.255],[177.431,-39.266],[177.295,-39.31],[177.319,-39.43]]]}},{"type":"Feature","properties":{"code":"TAR","name":"Taranaki"},"geometry":{"type":"Polygon","coordinates":[[[174.105,-39.783],[173.903,-39.744],[173.767,-39.69],[173.577,-39.524],[173.53,-39.448],[173.493,-39.31],[173.505,-39.216],[173.572,-39.088],[173.647,-39.022],[173.874,-38.877],[174.124,-38.795],[174.283,-38.782],[174.349,-38.732],[174.351,-38.702],[174.615,-38.706],[174.617,-38.723],[174.754,-38.745],[174.794,-38.731],[174.863,-38.775],[174.82,-38.787],[174.808,-38.82],[174.787,-38.821],[174.832,-38.915],[174.784,-38.921],[174.781,-38.961],[174.8,-38.971],[174.766,-38.988],[174.793,-39.064],[174.757,-39.088],[174.742,-39.077],[174.722,-39.107],[174.675,-39.13],[174.702,-39.149],[174.7,-39.206],[174.752,-39.225],[174.757,-39.29],[174.783,-39.288],[174.823,-39.334],[174.887,-39.354],[174.884,-39.385],[174.866,-39.389],[174.887,-39.415],[174.885,-39.435],[174.928,-39.476],[174.967,-39.485],[174.97,-39.525],[174.992,-39.54],[174.968,-39.605],[174.97,-39.646],[174.988,-39.665],[174.93,-39.683],[174.918,-39.75],[174.894,-39.747],[174.835,-39.8],[174.803,-39.803],[174.793,-39.834],[174.766,-39.853],[174.784,-39.858],[174.717,-40.069],[174.631,-40.056],[174.427,-39.989],[174.28,-39.907],[174.159,-39.804],[174.105,-39.783]]]}},{"type":"Feature","properties":{"code":"MWT","name":"Manawatū-Whanganui"},"geometry":{"type":"Polygon","coordinates":[[[175.473,-40.693],[175.434,-40.746],[175.371,-40.727],[175.346,-40.752],[175.328,-40.744],[175.269,-40.769],[175.213,-40.763],[175.188,-40.745],[175.207,-40.732],[175.171,-40.711],[174.851,-40.629],[174.894,-40.622],[174.942,-40.501],[174.966,-40.368],[174.95,-40.24],[174.86,-40.127],[174.77,-40.067],[174.717,-40.069],[174.784,-39.858],[174.766,-39.853],[174.793,-39.834],[174.803,-39.803],[174.835,-39.8],[174.894,-39.747],[174.918,-39.75],[174.93,-39.683],[174.987,-39.666],[174.97,-39.646],[174.968,-39.605],[174.992,-39.54],[174.97,-39.525],[174.967,-39.485],[174.928,-39.476],[174.885,-39.435],[174.887,-39.415],[174.866,-39.389],[174.879,-39.39],[174.892,-39.358],[174.823,-39.334],[174.783,-39.288],[174.757,-39.29],[174.752,-39.225],[174.7,-39.206],[174.702,-39.149],[174.675,-39.13],[174.722,-39.107],[174.742,-39.077],[174.757,-39.088],[174.793,-39.064],[174.766,-38.988],[174.8,-38.971],[174.781,-38.961],[174.784,-38.921],[174.832,-38.915],[174.787,-38.821],[174.808,-38.82],[174.82,-38.787],[174.938,-38.75],[174.935,-38.731],[174.964,-38.697],[174.956,-38.665],[175,-38.666],[175.116,-38.622],[175.222,-38.636],[175.285,-38.588],[175.302,-38.599],[175.303,-38.571],[175.325,-38.551],[175.336,-38.582],[175.378,-38.573],[175.383,-38.542],[175.415,-38.528],[175.439,-38.493],[175.542,-38.481],[175.538,-38.47],[175.565,-38.495],[175.612,-38.488],[175.637,-38.552],[175.629,-38.601],[175.576,-38.65],[175.58,-38.682],[175.518,-38.751],[175.578,-38.825],[175.545,-38.864],[175.58,-38.911],[175.554,-38.957],[175.569,-38.97],[175.563,-38.987],[175.682,-38.98],[175.636,-39.045],[175.614,-39.051],[175.619,-39.083],[175.648,-39.1],[175.635,-39.158],[175.558,-39.276],[175.669,-39.297],[175.752,-39.288],[175.813,-39.3],[175.868,-39.263],[175.855,-39.244],[175.893,-39.224],[175.886,-39.206],[175.964,-39.18],[175.989,-39.116],[176.031,-39.078],[176.032,-39.1],[176.086,-39.129],[176.101,-39.17],[176.075,-39.211],[176.115,-39.223],[176.081,-39.26],[176.102,-39.315],[176.122,-39.327],[176.043,-39.381],[176.111,-39.384],[176.121,-39.434],[176.144,-39.448],[176.137,-39.476],[176.194,-39.505],[176.182,-39.542],[176.143,-39.58],[176.179,-39.605],[176.165,-39.649],[176.201,-39.673],[176.169,-39.718],[176.177,-39.744],[176.117,-39.887],[176.126,-39.905],[176.107,-39.917],[176.121,-39.962],[176.094,-39.996],[176.137,-40.029],[176.154,-40.012],[176.239,-40.027],[176.264,-40.063],[176.321,-40.086],[176.313,-40.124],[176.379,-40.158],[176.359,-40.198],[176.38,-40.237],[176.378,-40.272],[176.399,-40.285],[176.389,-40.323],[176.406,-40.333],[176.371,-40.359],[176.392,-40.362],[176.391,-40.378],[176.46,-40.412],[176.492,-40.412],[176.493,-40.4],[176.55,-40.421],[176.559,-40.407],[176.587,-40.431],[176.623,-40.428],[176.892,-40.493],[176.868,-40.568],[176.83,-40.617],[176.773,-40.657],[176.691,-40.685],[176.564,-40.811],[176.332,-40.698],[176.285,-40.698],[176.274,-40.68],[176.237,-40.68],[176.211,-40.659],[176.162,-40.682],[176.094,-40.675],[176.082,-40.716],[176.017,-40.706],[175.974,-40.723],[175.975,-40.738],[175.943,-40.741],[175.935,-40.767],[175.91,-40.751],[175.872,-40.778],[175.849,-40.762],[175.827,-40.761],[175.811,-40.78],[175.765,-40.768],[175.791,-40.726],[175.77,-40.699],[175.754,-40.709],[175.752,-40.697],[175.691,-40.697],[175.694,-40.716],[175.628,-40.753],[175.473,-40.693]]]}},{"type":"Feature","properties":{"code":"WGN","name":"Wellington"},"geometry":{"type":"Polygon","coordinates":[[[174.982,-41.678],[174.516,-41.518],[174.429,-41.457],[174.413,-41.469],[174.388,-41.427],[174.515,-41.216],[174.62,-40.806],[174.71,-40.703],[174.77,-40.658],[174.851,-40.629],[175.171,-40.711],[175.207,-40.732],[175.189,-40.743],[175.193,-40.757],[175.268,-40.769],[175.328,-40.744],[175.347,-40.752],[175.371,-40.727],[175.434,-40.746],[175.473,-40.693],[175.628,-40.753],[175.694,-40.716],[175.691,-40.697],[175.752,-40.697],[175.754,-40.709],[175.77,-40.699],[175.791,-40.726],[175.765,-40.768],[175.811,-40.78],[175.827,-40.761],[175.872,-40.778],[175.91,-40.751],[175.935,-40.767],[175.943,-40.741],[175.975,-40.738],[175.974,-40.723],[176.017,-40.706],[176.082,-40.716],[176.094,-40.675],[176.162,-40.682],[176.211,-40.659],[176.237,-40.68],[176.274,-40.68],[176.285,-40.698],[176.332,-40.698],[176.564,-40.811],[176.522,-40.856],[176.462,-41],[176.363,-41.096],[176.291,-41.281],[176.11,-41.419],[176.072,-41.477],[176.013,-41.522],[175.84,-41.584],[175.757,-41.648],[175.563,-41.748],[175.343,-41.811],[175.209,-41.812],[175.117,-41.793],[175.032,-41.743],[174.982,-41.678]]]}},{"type":"Feature","properties":{"code":"WTC","name":"West Coast"},"geometry":{"type":"Polygon","coordinates":[[[172.299,-42.423],[172.279,-42.45],[172.236,-42.457],[172.227,-42.48],[172.187,-42.504],[172.174,-42.539],[172.133,-42.555],[172.099,-42.592],[172.094,-42.621],[171.974,-42.639],[171.972,-42.653],[171.926,-42.666],[171.885,-42.719],[171.884,-42.75],[171.813,-42.79],[171.764,-42.792],[171.763,-42.837],[171.733,-42.853],[171.746,-42.874],[171.71,-42.904],[171.687,-42.906],[171.665,-42.886],[171.634,-42.903],[171.587,-42.896],[171.517,-42.914],[171.491,-42.896],[171.442,-42.914],[171.438,-42.936],[171.396,-42.959],[171.393,-42.943],[171.362,-42.937],[171.314,-42.948],[171.308,-42.966],[171.238,-43.003],[171.241,-43.031],[171.22,-43.065],[171.117,-43.086],[171.105,-43.112],[171.08,-43.102],[171.037,-43.146],[171.047,-43.164],[171.02,-43.175],[170.992,-43.218],[170.948,-43.227],[170.948,-43.206],[170.929,-43.207],[170.873,-43.246],[170.86,-43.281],[170.76,-43.318],[170.705,-43.319],[170.716,-43.343],[170.647,-43.369],[170.657,-43.387],[170.633,-43.397],[170.615,-43.432],[170.53,-43.41],[170.475,-43.433],[170.459,-43.461],[170.395,-43.498],[170.357,-43.506],[170.329,-43.482],[170.238,-43.514],[170.14,-43.589],[170.093,-43.6],[170.095,-43.656],[170.028,-43.691],[170.03,-43.723],[169.979,-43.747],[169.967,-43.791],[169.943,-43.789],[169.9,-43.813],[169.894,-43.834],[169.858,-43.837],[169.838,-43.867],[169.771,-43.899],[169.758,-43.934],[169.72,-43.96],[169.593,-43.958],[169.579,-44.034],[169.463,-44.059],[169.387,-44.119],[169.339,-44.102],[169.309,-44.061],[169.291,-44.063],[169.257,-44.108],[169.16,-44.105],[169.146,-44.08],[169.074,-44.11],[169.013,-44.115],[169.016,-44.131],[168.975,-44.144],[168.987,-44.169],[168.965,-44.174],[168.959,-44.206],[168.911,-44.21],[168.849,-44.246],[168.857,-44.27],[168.832,-44.351],[168.753,-44.392],[168.743,-44.421],[168.687,-44.392],[168.586,-44.454],[168.524,-44.46],[168.461,-44.495],[168.335,-44.497],[168.366,-44.424],[168.352,-44.404],[168.412,-44.364],[168.368,-44.355],[168.381,-44.338],[168.348,-44.329],[168.345,-44.282],[168.25,-44.255],[168.158,-44.282],[168.052,-44.259],[167.838,-44.127],[168.031,-44.011],[168.138,-43.889],[168.2,-43.844],[168.299,-43.81],[168.422,-43.801],[168.62,-43.754],[168.752,-43.684],[168.923,-43.643],[169.04,-43.56],[169.233,-43.469],[169.487,-43.393],[169.619,-43.268],[169.708,-43.22],[169.801,-43.197],[169.975,-43.067],[170.092,-42.95],[170.203,-42.912],[170.303,-42.855],[170.463,-42.816],[170.609,-42.735],[170.738,-42.595],[170.858,-42.505],[170.92,-42.424],[170.978,-42.281],[171.046,-42.196],[171.066,-42.061],[171.145,-41.914],[171.186,-41.812],[171.19,-41.714],[171.244,-41.617],[171.3,-41.567],[171.378,-41.534],[171.464,-41.521],[171.598,-41.527],[171.642,-41.502],[171.758,-41.338],[171.823,-41.281],[171.839,-41.173],[171.834,-40.87],[171.908,-40.741],[172.031,-40.628],[172.248,-40.805],[172.234,-40.869],[172.261,-40.859],[172.288,-40.876],[172.282,-40.899],[172.302,-40.925],[172.377,-40.935],[172.386,-40.95],[172.37,-40.97],[172.311,-41.012],[172.334,-41.035],[172.325,-41.06],[172.35,-41.063],[172.383,-41.023],[172.419,-41.034],[172.491,-41.023],[172.492,-41.065],[172.513,-41.067],[172.52,-41.096],[172.553,-41.102],[172.619,-41.16],[172.629,-41.195],[172.673,-41.188],[172.692,-41.2],[172.658,-41.239],[172.575,-41.258],[172.6,-41.301],[172.584,-41.376],[172.512,-41.413],[172.461,-41.394],[172.416,-41.412],[172.431,-41.429],[172.419,-41.471],[172.343,-41.512],[172.328,-41.603],[172.291,-41.635],[172.264,-41.627],[172.237,-41.64],[172.252,-41.702],[172.214,-41.689],[172.155,-41.7],[172.119,-41.725],[172.118,-41.756],[172.097,-41.774],[172.116,-41.789],[172.116,-41.868],[172.094,-41.874],[172.093,-41.892],[172.065,-41.894],[172.077,-41.92],[172.051,-41.952],[172.07,-41.965],[172.081,-42.008],[172.12,-42.015],[172.105,-42.049],[172.135,-42.104],[172.207,-42.098],[172.206,-42.115],[172.248,-42.132],[172.252,-42.15],[172.333,-42.149],[172.349,-42.222],[172.334,-42.245],[172.354,-42.256],[172.356,-42.281],[172.431,-42.306],[172.454,-42.275],[172.479,-42.277],[172.443,-42.367],[172.348,-42.391],[172.299,-42.423]]]}},{"type":"Feature","properties":{"code":"CAN","name":"Canterbury"},"geometry":{"type":"Polygon","coordinates":[[[172.692,-42.107],[172.721,-42.103],[172.729,-42.165],[172.794,-42.162],[172.807,-42.189],[172.832,-42.184],[172.827,-42.248],[172.863,-42.256],[172.842,-42.29],[172.847,-42.308],[172.915,-42.309],[172.92,-42.346],[172.944,-42.351],[172.941,-42.378],[173.003,-42.393],[172.97,-42.449],[173.014,-42.446],[173.053,-42.488],[173.106,-42.448],[173.152,-42.45],[173.164,-42.419],[173.221,-42.38],[173.224,-42.357],[173.243,-42.356],[173.183,-42.337],[173.296,-42.266],[173.296,-42.248],[173.333,-42.247],[173.342,-42.228],[173.351,-42.243],[173.373,-42.237],[173.369,-42.224],[173.438,-42.214],[173.464,-42.196],[173.464,-42.18],[173.484,-42.181],[173.463,-42.118],[173.487,-42.11],[173.499,-42.079],[173.547,-42.07],[173.555,-42.046],[173.595,-42.029],[173.61,-42.005],[173.638,-42.009],[173.663,-41.982],[173.72,-41.961],[173.714,-41.94],[173.744,-41.907],[173.762,-41.912],[173.789,-41.958],[173.817,-41.933],[173.959,-41.908],[173.977,-41.933],[174.049,-41.929],[174.063,-41.935],[174.048,-41.968],[174.264,-42.099],[174.208,-42.147],[174.201,-42.212],[174.164,-42.274],[173.995,-42.412],[173.985,-42.476],[173.95,-42.533],[173.861,-42.599],[173.77,-42.63],[173.716,-42.697],[173.561,-42.972],[173.463,-43.076],[173.323,-43.154],[173.231,-43.23],[173.006,-43.296],[172.984,-43.354],[172.989,-43.425],[173.162,-43.468],[173.232,-43.501],[173.337,-43.586],[173.393,-43.681],[173.407,-43.745],[173.398,-43.828],[173.348,-43.927],[173.286,-43.987],[173.131,-44.067],[172.964,-44.102],[172.744,-44.081],[172.623,-44.032],[172.401,-44.057],[172.138,-44.141],[171.616,-44.376],[171.544,-44.426],[171.524,-44.512],[171.441,-44.627],[171.454,-44.861],[171.407,-45.015],[171.116,-44.929],[170.841,-44.891],[170.841,-44.903],[170.648,-44.912],[170.628,-44.934],[170.637,-44.951],[170.615,-44.967],[170.579,-44.965],[170.481,-45.047],[170.389,-45.079],[170.349,-45.022],[170.347,-44.99],[170.373,-44.952],[170.349,-44.943],[170.35,-44.908],[170.319,-44.903],[170.302,-44.92],[170.252,-44.919],[170.164,-44.946],[170.094,-44.94],[170.069,-44.923],[170.082,-44.912],[170.064,-44.884],[170.031,-44.87],[169.998,-44.825],[169.944,-44.654],[169.891,-44.644],[169.836,-44.669],[169.806,-44.661],[169.755,-44.639],[169.757,-44.612],[169.731,-44.565],[169.709,-44.601],[169.641,-44.596],[169.641,-44.565],[169.663,-44.537],[169.634,-44.502],[169.642,-44.466],[169.542,-44.449],[169.579,-44.34],[169.568,-44.319],[169.581,-44.252],[169.543,-44.207],[169.606,-44.159],[169.599,-44.15],[169.639,-44.12],[169.665,-44.068],[169.682,-44.068],[169.686,-44.042],[169.719,-44.037],[169.699,-43.964],[169.758,-43.934],[169.771,-43.899],[169.838,-43.867],[169.858,-43.837],[169.894,-43.834],[169.9,-43.813],[169.973,-43.787],[169.979,-43.747],[170.03,-43.723],[170.028,-43.691],[170.095,-43.656],[170.098,-43.595],[170.14,-43.589],[170.229,-43.519],[170.328,-43.482],[170.357,-43.506],[170.395,-43.498],[170.459,-43.461],[170.475,-43.433],[170.53,-43.41],[170.615,-43.432],[170.633,-43.397],[170.657,-43.387],[170.647,-43.369],[170.716,-43.343],[170.705,-43.319],[170.76,-43.318],[170.86,-43.281],[170.873,-43.246],[170.929,-43.207],[170.948,-43.206],[170.948,-43.227],[170.992,-43.218],[171.02,-43.175],[171.047,-43.164],[171.037,-43.146],[171.08,-43.102],[171.105,-43.112],[171.117,-43.086],[171.22,-43.065],[171.241,-43.031],[171.238,-43.003],[171.308,-42.966],[171.314,-42.948],[171.362,-42.937],[171.393,-42.943],[171.396,-42.959],[171.438,-42.936],[171.442,-42.914],[171.491,-42.896],[171.517,-42.914],[171.587,-42.896],[171.634,-42.903],[171.665,-42.886],[171.687,-42.906],[171.71,-42.904],[171.746,-42.874],[171.733,-42.853],[171.763,-42.837],[171.764,-42.792],[171.813,-42.79],[171.884,-42.75],[171.885,-42.719],[171.926,-42.666],[171.972,-42.653],[171.974,-42.639],[172.094,-42.621],[172.108,-42.58],[172.178,-42.536],[172.187,-42.504],[172.227,-42.48],[172.236,-42.456],[172.279,-42.45],[172.347,-42.392],[172.443,-42.367],[172.479,-42.273],[172.515,-42.264],[172.559,-42.22],[172.616,-42.194],[172.61,-42.166],[172.641,-42.133],[172.636,-42.102],[172.678,-42.088],[172.692,-42.107]]]}},{"type":"Feature","properties":{"code":"OTG","name":"Otago"},"geometry":{"type":"Polygon","coordinates":[[[170.637,-44.951],[170.628,-44.933],[170.659,-44.909],[170.882,-44.891],[171,-44.921],[171.116,-44.929],[171.407,-45.015],[171.327,-45.123],[171.14,-45.31],[171.152,-45.371],[171.139,-45.455],[171.085,-45.568],[171.008,-45.636],[170.988,-45.676],[171.022,-45.732],[171.038,-45.795],[171.033,-45.9],[171.008,-45.959],[170.925,-46.031],[170.776,-46.093],[170.482,-46.141],[170.446,-46.225],[170.395,-46.283],[170.116,-46.454],[170.099,-46.52],[170.059,-46.572],[169.877,-46.678],[169.7,-46.762],[169.445,-46.83],[169.342,-46.839],[169.265,-46.586],[169.191,-46.557],[169.225,-46.55],[169.25,-46.513],[169.173,-46.487],[169.163,-46.458],[169.197,-46.439],[169.196,-46.404],[169.134,-46.375],[169.142,-46.353],[169.191,-46.326],[169.177,-46.322],[169.197,-46.304],[169.177,-46.286],[169.189,-46.28],[169.198,-46.2],[169.167,-46.192],[169.161,-46.152],[169.13,-46.148],[169.163,-46.117],[169.163,-46.096],[169.136,-46.085],[169.158,-46.068],[169.153,-46.049],[169.104,-46.037],[169.08,-46.009],[169.128,-46.003],[169.073,-46.002],[169.067,-45.985],[169.1,-45.948],[169.073,-45.925],[169.099,-45.884],[169.057,-45.85],[169.05,-45.864],[169.004,-45.86],[169.029,-45.809],[169.003,-45.796],[168.993,-45.729],[169.005,-45.698],[169.099,-45.581],[169.147,-45.451],[169.2,-45.434],[169.209,-45.402],[169.164,-45.371],[169.148,-45.339],[169.099,-45.32],[169.09,-45.286],[169.068,-45.269],[168.96,-45.359],[168.887,-45.463],[168.859,-45.452],[168.854,-45.432],[168.825,-45.446],[168.779,-45.437],[168.775,-45.365],[168.692,-45.34],[168.698,-45.312],[168.674,-45.243],[168.539,-45.309],[168.323,-45.328],[168.3,-45.294],[168.307,-45.26],[168.288,-45.245],[168.3,-45.221],[168.252,-45.2],[168.239,-45.154],[168.217,-45.144],[168.284,-45.106],[168.291,-45.04],[168.31,-45.026],[168.296,-45.014],[168.236,-45.024],[168.175,-44.981],[168.176,-44.966],[168.131,-44.938],[168.137,-44.914],[168.116,-44.878],[168.127,-44.829],[168.168,-44.828],[168.205,-44.746],[168.182,-44.745],[168.169,-44.722],[168.192,-44.681],[168.185,-44.646],[168.237,-44.577],[168.235,-44.543],[168.29,-44.496],[168.461,-44.495],[168.524,-44.46],[168.586,-44.454],[168.687,-44.392],[168.743,-44.421],[168.753,-44.392],[168.832,-44.351],[168.857,-44.27],[168.849,-44.246],[168.911,-44.21],[168.959,-44.206],[168.965,-44.174],[168.987,-44.169],[168.975,-44.144],[169.016,-44.131],[169.013,-44.115],[169.074,-44.11],[169.146,-44.08],[169.16,-44.105],[169.257,-44.108],[169.291,-44.063],[169.309,-44.061],[169.339,-44.102],[169.387,-44.119],[169.463,-44.059],[169.579,-44.034],[169.593,-43.958],[169.671,-43.955],[169.699,-43.964],[169.719,-44.037],[169.686,-44.042],[169.682,-44.068],[169.665,-44.068],[169.639,-44.12],[169.599,-44.15],[169.606,-44.159],[169.543,-44.208],[169.581,-44.252],[169.568,-44.319],[169.579,-44.34],[169.542,-44.449],[169.642,-44.466],[169.634,-44.502],[169.663,-44.537],[169.641,-44.565],[169.641,-44.596],[169.709,-44.601],[169.731,-44.565],[169.757,-44.612],[169.755,-44.639],[169.806,-44.661],[169.836,-44.669],[169.891,-44.644],[169.944,-44.654],[169.998,-44.825],[170.031,-44.87],[170.064,-44.884],[170.082,-44.912],[170.069,-44.923],[170.094,-44.94],[170.164,-44.946],[170.252,-44.919],[170.302,-44.92],[170.319,-44.903],[170.35,-44.908],[170.349,-44.943],[170.373,-44.952],[170.347,-44.99],[170.349,-45.022],[170.387,-45.079],[170.436,-45.072],[170.542,-44.985],[170.637,-44.951]]]}},{"type":"Feature","properties":{"code":"STL","name":"Southland"},"geometry":{"type":"Polygon","coordinates":[[[169.163,-46.463],[169.177,-46.489],[169.25,-46.513],[169.225,-46.55],[169.191,-46.557],[169.265,-46.586],[169.342,-46.839],[169.253,-46.861],[169.034,-46.877],[168.838,-46.869],[168.724,-46.956],[168.544,-47.015],[168.567,-47.103],[168.533,-47.186],[168.477,-47.237],[168.361,-47.295],[168.195,-47.328],[168.193,-47.431],[168.13,-47.509],[168.116,-47.581],[168.065,-47.645],[168.001,-47.684],[167.904,-47.716],[167.807,-47.724],[167.713,-47.71],[167.627,-47.675],[167.565,-47.623],[167.53,-47.554],[167.531,-47.489],[167.311,-47.463],[167.217,-47.431],[167.077,-47.339],[167.027,-47.244],[167.048,-47.149],[167.166,-47.02],[167.247,-46.967],[167.365,-46.935],[167.369,-46.91],[167.332,-46.863],[167.306,-46.797],[167.311,-46.698],[167.368,-46.623],[167.541,-46.531],[167.533,-46.513],[167.292,-46.459],[167.155,-46.465],[167.191,-46.533],[167.193,-46.612],[167.157,-46.681],[167.088,-46.737],[166.993,-46.772],[166.878,-46.782],[166.782,-46.767],[166.675,-46.724],[166.598,-46.656],[166.57,-46.577],[166.592,-46.494],[166.67,-46.418],[166.565,-46.396],[166.434,-46.336],[166.363,-46.265],[166.278,-46.21],[166.189,-46.097],[166.139,-45.921],[166.155,-45.697],[166.185,-45.636],[166.285,-45.529],[166.414,-45.439],[166.514,-45.271],[166.677,-45.071],[167.068,-44.73],[167.312,-44.598],[167.393,-44.524],[167.528,-44.45],[167.631,-44.327],[167.738,-44.242],[167.838,-44.127],[168.052,-44.259],[168.158,-44.282],[168.25,-44.255],[168.345,-44.282],[168.349,-44.33],[168.381,-44.338],[168.368,-44.355],[168.411,-44.362],[168.352,-44.404],[168.366,-44.424],[168.337,-44.495],[168.29,-44.496],[168.235,-44.543],[168.237,-44.576],[168.185,-44.646],[168.192,-44.681],[168.169,-44.721],[168.182,-44.745],[168.205,-44.746],[168.168,-44.828],[168.127,-44.829],[168.117,-44.876],[168.137,-44.914],[168.131,-44.938],[168.176,-44.966],[168.175,-44.981],[168.236,-45.024],[168.296,-45.014],[168.31,-45.026],[168.291,-45.04],[168.284,-45.106],[168.217,-45.144],[168.239,-45.154],[168.252,-45.2],[168.3,-45.221],[168.288,-45.245],[168.307,-45.26],[168.3,-45.294],[168.323,-45.328],[168.539,-45.309],[168.674,-45.243],[168.698,-45.312],[168.692,-45.34],[168.775,-45.365],[168.779,-45.437],[168.825,-45.446],[168.854,-45.432],[168.859,-45.452],[168.887,-45.463],[168.96,-45.359],[169.068,-45.269],[169.09,-45.286],[169.099,-45.32],[169.148,-45.339],[169.164,-45.371],[169.209,-45.402],[169.2,-45.434],[169.147,-45.451],[169.13,-45.525],[169.059,-45.641],[169.025,-45.66],[168.993,-45.729],[169.003,-45.796],[169.029,-45.809],[169.005,-45.863],[169.05,-45.864],[169.057,-45.85],[169.099,-45.884],[169.073,-45.925],[169.1,-45.948],[169.067,-45.985],[169.073,-46.002],[169.128,-46.003],[169.08,-46.009],[169.104,-46.037],[169.153,-46.049],[169.158,-46.068],[169.136,-46.085],[169.163,-46.096],[169.163,-46.117],[169.13,-46.148],[169.161,-46.152],[169.167,-46.192],[169.198,-46.2],[169.189,-46.28],[169.177,-46.286],[169.197,-46.304],[169.177,-46.322],[169.191,-46.326],[169.142,-46.353],[169.134,-46.375],[169.196,-46.404],[169.197,-46.439],[169.163,-46.463]]]}},{"type":"Feature","properties":{"code":"TAS","name":"Tasman"},"geometry":{"type":"Polygon","coordinates":[[[173.206,-41.299],[173.176,-41.304],[173.23,-41.369],[173.25,-41.365],[173.256,-41.382],[173.297,-41.393],[173.285,-41.403],[173.295,-41.426],[173.251,-41.467],[173.304,-41.506],[173.299,-41.516],[173.172,-41.524],[173.152,-41.586],[173.089,-41.624],[173.059,-41.626],[173.057,-41.668],[173.004,-41.725],[172.958,-41.75],[172.931,-41.744],[172.946,-41.781],[172.891,-41.818],[172.868,-41.867],[172.848,-41.874],[172.865,-41.909],[172.847,-41.942],[172.808,-41.958],[172.803,-41.985],[172.757,-42.036],[172.733,-42.034],[172.721,-42.103],[172.691,-42.107],[172.678,-42.088],[172.636,-42.102],[172.641,-42.133],[172.612,-42.158],[172.606,-42.204],[172.559,-42.22],[172.515,-42.264],[172.454,-42.275],[172.431,-42.306],[172.348,-42.277],[172.354,-42.256],[172.333,-42.239],[172.349,-42.222],[172.333,-42.149],[172.252,-42.15],[172.248,-42.132],[172.206,-42.115],[172.207,-42.098],[172.135,-42.104],[172.105,-42.049],[172.12,-42.015],[172.071,-41.999],[172.07,-41.965],[172.051,-41.952],[172.077,-41.92],[172.063,-41.899],[172.116,-41.868],[172.116,-41.789],[172.097,-41.774],[172.118,-41.756],[172.119,-41.725],[172.155,-41.7],[172.214,-41.689],[172.252,-41.702],[172.237,-41.64],[172.264,-41.627],[172.291,-41.635],[172.328,-41.603],[172.343,-41.512],[172.419,-41.471],[172.431,-41.429],[172.416,-41.412],[172.461,-41.394],[172.512,-41.413],[172.584,-41.376],[172.6,-41.301],[172.575,-41.258],[172.658,-41.239],[172.692,-41.2],[172.673,-41.188],[172.629,-41.195],[172.619,-41.16],[172.553,-41.102],[172.52,-41.096],[172.513,-41.067],[172.492,-41.065],[172.491,-41.023],[172.419,-41.034],[172.383,-41.023],[172.35,-41.063],[172.325,-41.06],[172.334,-41.035],[172.311,-41.012],[172.37,-40.97],[172.386,-40.95],[172.377,-40.935],[172.302,-40.925],[172.282,-40.899],[172.288,-40.876],[172.261,-40.859],[172.234,-40.869],[172.248,-40.805],[172.031,-40.628],[172.134,-40.582],[172.474,-40.353],[172.597,-40.308],[172.695,-40.298],[172.926,-40.311],[173.073,-40.339],[173.168,-40.378],[173.273,-40.451],[173.328,-40.525],[173.34,-40.62],[173.289,-40.749],[173.361,-40.805],[173.206,-41.299]]]}},{"type":"Feature","properties":{"code":"NSN","name":"Nelson"},"geometry":{"type":"Polygon","coordinates":[[[173.232,-41.363],[173.176,-41.304],[173.206,-41.299],[173.361,-40.805],[173.456,-40.879],[173.501,-40.863],[173.597,-41.058],[173.581,-41.164],[173.568,-41.19],[173.523,-41.198],[173.476,-41.229],[173.416,-41.289],[173.415,-41.323],[173.361,-41.353],[173.338,-41.386],[173.297,-41.393],[173.232,-41.363]]]}},{"type":"Feature","properties":{"code":"MBH","name":"Marlborough"},"geometry":{"type":"Polygon","coordinates":[[[173.594,-41.051],[173.501,-40.863],[173.536,-40.753],[173.624,-40.627],[173.723,-40.561],[173.94,-40.466],[174.075,-40.469],[174.189,-40.522],[174.248,-40.586],[174.315,-40.73],[174.373,-40.786],[174.47,-40.813],[174.603,-40.896],[174.515,-41.216],[174.388,-41.427],[174.413,-41.469],[174.395,-41.48],[174.42,-41.543],[174.495,-41.592],[174.552,-41.667],[174.568,-41.736],[174.556,-41.801],[174.511,-41.868],[174.264,-42.099],[174.048,-41.968],[174.063,-41.935],[174.049,-41.929],[173.977,-41.933],[173.959,-41.908],[173.817,-41.933],[173.789,-41.958],[173.762,-41.912],[173.744,-41.907],[173.714,-41.94],[173.72,-41.961],[173.663,-41.982],[173.638,-42.009],[173.61,-42.005],[173.595,-42.029],[173.555,-42.046],[173.547,-42.07],[173.499,-42.079],[173.487,-42.11],[173.463,-42.118],[173.484,-42.181],[173.464,-42.18],[173.464,-42.196],[173.438,-42.214],[173.369,-42.224],[173.373,-42.237],[173.351,-42.243],[173.342,-42.228],[173.333,-42.247],[173.296,-42.248],[173.296,-42.266],[173.183,-42.337],[173.243,-42.356],[173.224,-42.357],[173.221,-42.38],[173.164,-42.419],[173.152,-42.45],[173.112,-42.446],[173.057,-42.487],[173.037,-42.484],[173.016,-42.447],[172.97,-42.449],[173.003,-42.393],[172.941,-42.378],[172.944,-42.351],[172.92,-42.346],[172.915,-42.309],[172.847,-42.308],[172.842,-42.29],[172.863,-42.256],[172.827,-42.248],[172.832,-42.184],[172.807,-42.189],[172.794,-42.162],[172.75,-42.172],[172.722,-42.159],[172.733,-42.035],[172.757,-42.036],[172.803,-41.985],[172.808,-41.958],[172.847,-41.943],[172.865,-41.909],[172.848,-41.874],[172.868,-41.867],[172.891,-41.818],[172.946,-41.781],[172.926,-41.748],[172.958,-41.75],[173.004,-41.725],[173.057,-41.668],[173.059,-41.626],[173.089,-41.624],[173.151,-41.586],[173.172,-41.524],[173.299,-41.516],[173.304,-41.506],[173.251,-41.467],[173.295,-41.426],[173.285,-41.403],[173.338,-41.386],[173.361,-41.353],[173.407,-41.331],[173.416,-41.289],[173.476,-41.229],[173.574,-41.184],[173.594,-41.051]]]}}]}