{
"type": "FeatureCollection",
"name": "are_adminpoints",
"crs": { "type": "name", "properties": { "name": "urn:ogc:def:crs:OGC:1.3:CRS84" } },
"features": [
{ "type": "Feature", "properties": { "admin_level": 0, "name": "United Arab Emirates", "name1": "الإمارات العربية المتحدة", "name2": null, "name3": null, "x_coord": 55.1468601, "y_coord": 24.35065817, "adm4_name": null, "adm4_name1": null, "adm4_name2": null, "adm4_name3": null, "adm4_pcode": null, "adm3_name": null, "adm3_name1": null, "adm3_name2": null, "adm3_name3": null, "adm3_pcode": null, "adm2_name": null, "adm2_name1": null, "adm2_name2": null, "adm2_name3": null, "adm2_pcode": null, "adm1_name": null, "adm1_name1": null, "adm1_name2": null, "adm1_name3": null, "adm1_pcode": null, "adm0_name": "United Arab Emirates", "adm0_name1": null, "adm0_name2": null, "adm0_name3": null, "adm0_pcode": "AE", "valid_on": "2023-05-15", "valid_to": null, "version": "v01", "lang": "en", "lang1": "ar", "lang2": null, "lang3": null }, "geometry": { "type": "Point", "coordinates": [ 55.146860103000051, 24.350658170000031 ] } },
{ "type": "Feature", "properties": { "admin_level": 1, "name": "Abu Dhabi", "name1": "أبوظبى", "name2": null, "name3": null, "x_coord": 53.71225709, "y_coord": 23.77221437, "adm4_name": null, "adm4_name1": null, "adm4_name2": null, "adm4_name3": null, "adm4_pcode": null, "adm3_name": null, "adm3_name1": null, "adm3_name2": null, "adm3_name3": null, "adm3_pcode": null, "adm2_name": null, "adm2_name1": null, "adm2_name2": null, "adm2_name3": null, "adm2_pcode": null, "adm1_name": "Abu Dhabi", "adm1_name1": "أبوظبى", "adm1_name2": null, "adm1_name3": null, "adm1_pcode": "AE01", "adm0_name": "United Arab Emirates", "adm0_name1": null, "adm0_name2": null, "adm0_name3": null, "adm0_pcode": "AE", "valid_on": "2023-05-15", "valid_to": null, "version": "v01", "lang": "en", "lang1": "ar", "lang2": null, "lang3": null }, "geometry": { "type": "Point", "coordinates": [ 53.712257086000079, 23.7722143740001 ] } },
{ "type": "Feature", "properties": { "admin_level": 1, "name": "Dubai", "name1": "دبى", "name2": null, "name3": null, "x_coord": 55.33178672, "y_coord": 24.97535032, "adm4_name": null, "adm4_name1": null, "adm4_name2": null, "adm4_name3": null, "adm4_pcode": null, "adm3_name": null, "adm3_name1": null, "adm3_name2": null, "adm3_name3": null, "adm3_pcode": null, "adm2_name": null, "adm2_name1": null, "adm2_name2": null, "adm2_name3": null, "adm2_pcode": null, "adm1_name": "Dubai", "adm1_name1": "دبى", "adm1_name2": null, "adm1_name3": null, "adm1_pcode": "AE02", "adm0_name": "United Arab Emirates", "adm0_name1": null, "adm0_name2": null, "adm0_name3": null, "adm0_pcode": "AE", "valid_on": "2023-05-15", "valid_to": null, "version": "v01", "lang": "en", "lang1": "ar", "lang2": null, "lang3": null }, "geometry": { "type": "Point", "coordinates": [ 55.331786720000025, 24.97535032400009 ] } },
{ "type": "Feature", "properties": { "admin_level": 1, "name": "Sharjah", "name1": "الشارقة", "name2": null, "name3": null, "x_coord": 55.82414451, "y_coord": 25.13033549, "adm4_name": null, "adm4_name1": null, "adm4_name2": null, "adm4_name3": null, "adm4_pcode": null, "adm3_name": null, "adm3_name1": null, "adm3_name2": null, "adm3_name3": null, "adm3_pcode": null, "adm2_name": null, "adm2_name1": null, "adm2_name2": null, "adm2_name3": null, "adm2_pcode": null, "adm1_name": "Sharjah", "adm1_name1": "الشارقة", "adm1_name2": null, "adm1_name3": null, "adm1_pcode": "AE03", "adm0_name": "United Arab Emirates", "adm0_name1": null, "adm0_name2": null, "adm0_name3": null, "adm0_pcode": "AE", "valid_on": "2023-05-15", "valid_to": null, "version": "v01", "lang": "en", "lang1": "ar", "lang2": null, "lang3": null }, "geometry": { "type": "Point", "coordinates": [ 55.824144510000167, 25.130335489000174 ] } },
{ "type": "Feature", "properties": { "admin_level": 1, "name": "Ajman", "name1": "عجمان", "name2": null, "name3": null, "x_coord": 55.54068882, "y_coord": 25.40347847, "adm4_name": null, "adm4_name1": null, "adm4_name2": null, "adm4_name3": null, "adm4_pcode": null, "adm3_name": null, "adm3_name1": null, "adm3_name2": null, "adm3_name3": null, "adm3_pcode": null, "adm2_name": null, "adm2_name1": null, "adm2_name2": null, "adm2_name3": null, "adm2_pcode": null, "adm1_name": "Ajman", "adm1_name1": "عجمان", "adm1_name2": null, "adm1_name3": null, "adm1_pcode": "AE04", "adm0_name": "United Arab Emirates", "adm0_name1": null, "adm0_name2": null, "adm0_name3": null, "adm0_pcode": "AE", "valid_on": "2023-05-15", "valid_to": null, "version": "v01", "lang": "en", "lang1": "ar", "lang2": null, "lang3": null }, "geometry": { "type": "Point", "coordinates": [ 55.540688820000184, 25.403478465000092 ] } },
{ "type": "Feature", "properties": { "admin_level": 1, "name": "Umm Al Quwain", "name1": "أم القيوين", "name2": null, "name3": null, "x_coord": 55.6919188, "y_coord": 25.48605821, "adm4_name": null, "adm4_name1": null, "adm4_name2": null, "adm4_name3": null, "adm4_pcode": null, "adm3_name": null, "adm3_name1": null, "adm3_name2": null, "adm3_name3": null, "adm3_pcode": null, "adm2_name": null, "adm2_name1": null, "adm2_name2": null, "adm2_name3": null, "adm2_pcode": null, "adm1_name": "Umm Al Quwain", "adm1_name1": "أم القيوين", "adm1_name2": null, "adm1_name3": null, "adm1_pcode": "AE05", "adm0_name": "United Arab Emirates", "adm0_name1": null, "adm0_name2": null, "adm0_name3": null, "adm0_pcode": "AE", "valid_on": "2023-05-15", "valid_to": null, "version": "v01", "lang": "en", "lang1": "ar", "lang2": null, "lang3": null }, "geometry": { "type": "Point", "coordinates": [ 55.691918799000121, 25.486058214000082 ] } },
{ "type": "Feature", "properties": { "admin_level": 1, "name": "Ras Al Khaimah", "name1": "رأس الخيمة", "name2": null, "name3": null, "x_coord": 55.99319179, "y_coord": 25.71184709, "adm4_name": null, "adm4_name1": null, "adm4_name2": null, "adm4_name3": null, "adm4_pcode": null, "adm3_name": null, "adm3_name1": null, "adm3_name2": null, "adm3_name3": null, "adm3_pcode": null, "adm2_name": null, "adm2_name1": null, "adm2_name2": null, "adm2_name3": null, "adm2_pcode": null, "adm1_name": "Ras Al Khaimah", "adm1_name1": "رأس الخيمة", "adm1_name2": null, "adm1_name3": null, "adm1_pcode": "AE06", "adm0_name": "United Arab Emirates", "adm0_name1": null, "adm0_name2": null, "adm0_name3": null, "adm0_pcode": "AE", "valid_on": "2023-05-15", "valid_to": null, "version": "v01", "lang": "en", "lang1": "ar", "lang2": null, "lang3": null }, "geometry": { "type": "Point", "coordinates": [ 55.993191790000196, 25.711847090000163 ] } },
{ "type": "Feature", "properties": { "admin_level": 1, "name": "Fujairah", "name1": "الفجيرة", "name2": null, "name3": null, "x_coord": 56.23365878, "y_coord": 25.4343223, "adm4_name": null, "adm4_name1": null, "adm4_name2": null, "adm4_name3": null, "adm4_pcode": null, "adm3_name": null, "adm3_name1": null, "adm3_name2": null, "adm3_name3": null, "adm3_pcode": null, "adm2_name": null, "adm2_name1": null, "adm2_name2": null, "adm2_name3": null, "adm2_pcode": null, "adm1_name": "Fujairah", "adm1_name1": "الفجيرة", "adm1_name2": null, "adm1_name3": null, "adm1_pcode": "AE07", "adm0_name": "United Arab Emirates", "adm0_name1": null, "adm0_name2": null, "adm0_name3": null, "adm0_pcode": "AE", "valid_on": "2023-05-15", "valid_to": null, "version": "v01", "lang": "en", "lang1": "ar", "lang2": null, "lang3": null }, "geometry": { "type": "Point", "coordinates": [ 56.233658779000166, 25.434322300000076 ] } }
]
}
